{
"type": "FeatureCollection",
"name": "walk_access_metro",
"crs": { "type": "name", "properties": { "name": "urn:ogc:def:crs:OGC:1.3:CRS84" } },
"features": [
{ "type": "Feature", "properties": { "point_id": 4835, "best_station_walk": 5813, "t_walk_min": 26.13, "distance_m": 1524.57, "by_mode": { "WALK": { "distance_m": 1524.57, "duration_min": 26.13 } }, "n_metro_15min_walk": 0, "n_metro_30min_walk": 1 }, "geometry": { "type": "Point", "coordinates": [ -8.583466227500688, 41.088850146470492 ] } },
{ "type": "Feature", "properties": { "point_id": 4890, "best_station_walk": 5813, "t_walk_min": 24.23, "distance_m": 1432.89, "by_mode": { "WALK": { "distance_m": 1432.89, "duration_min": 24.23 } }, "n_metro_15min_walk": 0, "n_metro_30min_walk": 1 }, "geometry": { "type": "Point", "coordinates": [ -8.598974099701962, 41.095541827529509 ] } },
{ "type": "Feature", "properties": { "point_id": 4891, "best_station_walk": 5813, "t_walk_min": 8.87, "distance_m": 425.05, "by_mode": { "WALK": { "distance_m": 425.05, "duration_min": 8.87 } }, "n_metro_15min_walk": 1, "n_metro_30min_walk": 2 }, "geometry": { "type": "Point", "coordinates": [ -8.58866627016555, 41.095583043587268 ] } },
{ "type": "Feature", "properties": { "point_id": 4892, "best_station_walk": 5813, "t_walk_min": 27.6, "distance_m": 1599.68, "by_mode": { "WALK": { "distance_m": 1599.68, "duration_min": 27.6 } }, "n_metro_15min_walk": 0, "n_metro_30min_walk": 2 }, "geometry": { "type": "Point", "coordinates": [ -8.578358419481363, 41.095623337539969 ] } },
{ "type": "Feature", "properties": { "point_id": 4953, "best_station_walk": 5812, "t_walk_min": 29.03, "distance_m": 1688.39, "by_mode": { "WALK": { "distance_m": 1688.39, "duration_min": 29.03 } }, "n_metro_15min_walk": 0, "n_metro_30min_walk": 1 }, "geometry": { "type": "Point", "coordinates": [ -8.604176253517423, 41.102274005599092 ] } },
{ "type": "Feature", "properties": { "point_id": 4954, "best_station_walk": 5813, "t_walk_min": 16.32, "distance_m": 954.44, "by_mode": { "WALK": { "distance_m": 954.44, "duration_min": 16.32 } }, "n_metro_15min_walk": 0, "n_metro_30min_walk": 3 }, "geometry": { "type": "Point", "coordinates": [ -8.593867378983747, 41.102315692559436 ] } },
{ "type": "Feature", "properties": { "point_id": 4955, "best_station_walk": 5813, "t_walk_min": 14.32, "distance_m": 895.68, "by_mode": { "WALK": { "distance_m": 895.68, "duration_min": 14.32 } }, "n_metro_15min_walk": 2, "n_metro_30min_walk": 3 }, "geometry": { "type": "Point", "coordinates": [ -8.583558483054784, 41.102356457199491 ] } },
{ "type": "Feature", "properties": { "point_id": 5019, "best_station_walk": 5792, "t_walk_min": 18.03, "distance_m": 1034.92, "by_mode": { "WALK": { "distance_m": 1034.92, "duration_min": 18.03 } }, "n_metro_15min_walk": 0, "n_metro_30min_walk": 2 }, "geometry": { "type": "Point", "coordinates": [ -8.609379474195649, 41.109005935139493 ] } },
{ "type": "Feature", "properties": { "point_id": 5020, "best_station_walk": 5812, "t_walk_min": 3.4, "distance_m": 206.85, "by_mode": { "WALK": { "distance_m": 206.85, "duration_min": 3.4 } }, "n_metro_15min_walk": 1, "n_metro_30min_walk": 5 }, "geometry": { "type": "Point", "coordinates": [ -8.599069554433804, 41.10904809322102 ] } },
{ "type": "Feature", "properties": { "point_id": 5021, "best_station_walk": 5811, "t_walk_min": 10.93, "distance_m": 731.71, "by_mode": { "WALK": { "distance_m": 731.71, "duration_min": 10.93 } }, "n_metro_15min_walk": 1, "n_metro_30min_walk": 4 }, "geometry": { "type": "Point", "coordinates": [ -8.588759613028964, 41.109089328767006 ] } },
{ "type": "Feature", "properties": { "point_id": 5022, "best_station_walk": 5811, "t_walk_min": 29.33, "distance_m": 1691.7, "by_mode": { "WALK": { "distance_m": 1691.7, "duration_min": 29.33 } }, "n_metro_15min_walk": 0, "n_metro_30min_walk": 1 }, "geometry": { "type": "Point", "coordinates": [ -8.578449650459932, 41.109129641771958 ] } },
{ "type": "Feature", "properties": { "point_id": 5087, "best_station_walk": 5792, "t_walk_min": 15.2, "distance_m": 898.04, "by_mode": { "WALK": { "distance_m": 898.04, "duration_min": 15.2 } }, "n_metro_15min_walk": 0, "n_metro_30min_walk": 4 }, "geometry": { "type": "Point", "coordinates": [ -8.614583762215339, 41.115737615984585 ] } },
{ "type": "Feature", "properties": { "point_id": 5088, "best_station_walk": 5792, "t_walk_min": 4.63, "distance_m": 265.48, "by_mode": { "WALK": { "distance_m": 265.48, "duration_min": 4.63 } }, "n_metro_15min_walk": 3, "n_metro_30min_walk": 5 }, "geometry": { "type": "Point", "coordinates": [ -8.604272796994419, 41.115780245405936 ] } },
{ "type": "Feature", "properties": { "point_id": 5089, "best_station_walk": 5769, "t_walk_min": 21.43, "distance_m": 1316.56, "by_mode": { "WALK": { "distance_m": 1316.56, "duration_min": 21.43 } }, "n_metro_15min_walk": 0, "n_metro_30min_walk": 3 }, "geometry": { "type": "Point", "coordinates": [ -8.593961809882614, 41.115821952076494 ] } },
{ "type": "Feature", "properties": { "point_id": 5160, "best_station_walk": 5769, "t_walk_min": 27.57, "distance_m": 1583.42, "by_mode": { "WALK": { "distance_m": 1583.42, "duration_min": 27.57 } }, "n_metro_15min_walk": 0, "n_metro_30min_walk": 3 }, "geometry": { "type": "Point", "coordinates": [ -8.619789118055376, 41.122469047968238 ] } },
{ "type": "Feature", "properties": { "point_id": 5161, "best_station_walk": 5769, "t_walk_min": 7.77, "distance_m": 490.33, "by_mode": { "WALK": { "distance_m": 490.33, "duration_min": 7.77 } }, "n_metro_15min_walk": 2, "n_metro_30min_walk": 6 }, "geometry": { "type": "Point", "coordinates": [ -8.609477107144485, 41.122512148948104 ] } },
{ "type": "Feature", "properties": { "point_id": 5162, "best_station_walk": 5774, "t_walk_min": 12.72, "distance_m": 794.78, "by_mode": { "WALK": { "distance_m": 794.78, "duration_min": 12.72 } }, "n_metro_15min_walk": 2, "n_metro_30min_walk": 5 }, "geometry": { "type": "Point", "coordinates": [ -8.599165074094628, 41.122554326961911 ] } },
{ "type": "Feature", "properties": { "point_id": 5163, "best_station_walk": 5774, "t_walk_min": 25.72, "distance_m": 1612.23, "by_mode": { "WALK": { "distance_m": 1612.23, "duration_min": 25.72 } }, "n_metro_15min_walk": 0, "n_metro_30min_walk": 1 }, "geometry": { "type": "Point", "coordinates": [ -8.588853019384965, 41.122595582004031 ] } },
{ "type": "Feature", "properties": { "point_id": 5234, "best_station_walk": 5771, "t_walk_min": 29.48, "distance_m": 1875.96, "by_mode": { "WALK": { "distance_m": 1875.96, "duration_min": 29.48 } }, "n_metro_15min_walk": 0, "n_metro_30min_walk": 1 }, "geometry": { "type": "Point", "coordinates": [ -8.624995542194819, 41.129200230924205 ] } },
{ "type": "Feature", "properties": { "point_id": 5235, "best_station_walk": 5767, "t_walk_min": 13.57, "distance_m": 821.66, "by_mode": { "WALK": { "distance_m": 821.66, "duration_min": 13.57 } }, "n_metro_15min_walk": 1, "n_metro_30min_walk": 5 }, "geometry": { "type": "Point", "coordinates": [ -8.614682485363071, 41.129243803681334 ] } },
{ "type": "Feature", "properties": { "point_id": 5236, "best_station_walk": 5767, "t_walk_min": 3.72, "distance_m": 209.92, "by_mode": { "WALK": { "distance_m": 209.92, "duration_min": 3.72 } }, "n_metro_15min_walk": 3, "n_metro_30min_walk": 5 }, "geometry": { "type": "Point", "coordinates": [ -8.604369406144082, 41.129286453257116 ] } },
{ "type": "Feature", "properties": { "point_id": 5237, "best_station_walk": 5774, "t_walk_min": 24.47, "distance_m": 1464.33, "by_mode": { "WALK": { "distance_m": 1464.33, "duration_min": 24.47 } }, "n_metro_15min_walk": 0, "n_metro_30min_walk": 2 }, "geometry": { "type": "Point", "coordinates": [ -8.594056305017201, 41.129328179645874 ] } },
{ "type": "Feature", "properties": { "point_id": 5309, "best_station_walk": 5771, "t_walk_min": 28.92, "distance_m": 1576.02, "by_mode": { "WALK": { "distance_m": 1576.02, "duration_min": 28.92 } }, "n_metro_15min_walk": 0, "n_metro_30min_walk": 2 }, "geometry": { "type": "Point", "coordinates": [ -8.619888932129427, 41.135975209439394 ] } },
{ "type": "Feature", "properties": { "point_id": 5310, "best_station_walk": 5773, "t_walk_min": 6.52, "distance_m": 343.14, "by_mode": { "WALK": { "distance_m": 343.14, "duration_min": 6.52 } }, "n_metro_15min_walk": 2, "n_metro_30min_walk": 6 }, "geometry": { "type": "Point", "coordinates": [ -8.609574806510235, 41.136018330795928 ] } },
{ "type": "Feature", "properties": { "point_id": 5311, "best_station_walk": 5771, "t_walk_min": 17.5, "distance_m": 952.53, "by_mode": { "WALK": { "distance_m": 952.53, "duration_min": 17.5 } }, "n_metro_15min_walk": 0, "n_metro_30min_walk": 4 }, "geometry": { "type": "Point", "coordinates": [ -8.599260658734872, 41.136060528750107 ] } },
{ "type": "Feature", "properties": { "point_id": 5385, "best_station_walk": 5778, "t_walk_min": 8.63, "distance_m": 482.69, "by_mode": { "WALK": { "distance_m": 482.69, "duration_min": 8.63 } }, "n_metro_15min_walk": 2, "n_metro_30min_walk": 6 }, "geometry": { "type": "Point", "coordinates": [ -8.614781275672529, 41.142749959412114 ] } },
{ "type": "Feature", "properties": { "point_id": 5386, "best_station_walk": 5778, "t_walk_min": 13.12, "distance_m": 733.53, "by_mode": { "WALK": { "distance_m": 733.53, "duration_min": 13.12 } }, "n_metro_15min_walk": 1, "n_metro_30min_walk": 8 }, "geometry": { "type": "Point", "coordinates": [ -8.60446608101743, 41.142792629150527 ] } },
{ "type": "Feature", "properties": { "point_id": 5387, "best_station_walk": 5712, "t_walk_min": 10.7, "distance_m": 679.62, "by_mode": { "WALK": { "distance_m": 679.62, "duration_min": 10.7 } }, "n_metro_15min_walk": 2, "n_metro_30min_walk": 5 }, "geometry": { "type": "Point", "coordinates": [ -8.594150864437411, 41.142834375265473 ] } },
{ "type": "Feature", "properties": { "point_id": 5388, "best_station_walk": 5703, "t_walk_min": 25.0, "distance_m": 1327.88, "by_mode": { "WALK": { "distance_m": 1327.88, "duration_min": 25.0 } }, "n_metro_15min_walk": 0, "n_metro_30min_walk": 2 }, "geometry": { "type": "Point", "coordinates": [ -8.583835626412199, 41.142875197751415 ] } },
{ "type": "Feature", "properties": { "point_id": 5461, "best_station_walk": 5766, "t_walk_min": 17.22, "distance_m": 1092.75, "by_mode": { "WALK": { "distance_m": 1092.75, "duration_min": 17.22 } }, "n_metro_15min_walk": 0, "n_metro_30min_walk": 8 }, "geometry": { "type": "Point", "coordinates": [ -8.619988814110592, 41.149481338939388 ] } },
{ "type": "Feature", "properties": { "point_id": 5462, "best_station_walk": 5766, "t_walk_min": 3.6, "distance_m": 219.07, "by_mode": { "WALK": { "distance_m": 219.07, "duration_min": 3.6 } }, "n_metro_15min_walk": 4, "n_metro_30min_walk": 10 }, "geometry": { "type": "Point", "coordinates": [ -8.609672572344506, 41.149524480680881 ] } },
{ "type": "Feature", "properties": { "point_id": 5463, "best_station_walk": 5697, "t_walk_min": 2.45, "distance_m": 128.01, "by_mode": { "WALK": { "distance_m": 128.01, "duration_min": 2.45 } }, "n_metro_15min_walk": 3, "n_metro_30min_walk": 9 }, "geometry": { "type": "Point", "coordinates": [ -8.599356308405024, 41.149566698583492 ] } },
{ "type": "Feature", "properties": { "point_id": 5464, "best_station_walk": 5703, "t_walk_min": 5.95, "distance_m": 409.71, "by_mode": { "WALK": { "distance_m": 409.71, "duration_min": 5.95 } }, "n_metro_15min_walk": 2, "n_metro_30min_walk": 4 }, "geometry": { "type": "Point", "coordinates": [ -8.589040022772062, 41.149607992641592 ] } },
{ "type": "Feature", "properties": { "point_id": 5465, "best_station_walk": 5703, "t_walk_min": 28.87, "distance_m": 1676.28, "by_mode": { "WALK": { "distance_m": 1676.28, "duration_min": 28.87 } }, "n_metro_15min_walk": 0, "n_metro_30min_walk": 1 }, "geometry": { "type": "Point", "coordinates": [ -8.578723715925531, 41.149648362849653 ] } },
{ "type": "Feature", "properties": { "point_id": 5536, "best_station_walk": 5711, "t_walk_min": 22.9, "distance_m": 1434.77, "by_mode": { "WALK": { "distance_m": 1434.77, "duration_min": 22.9 } }, "n_metro_15min_walk": 0, "n_metro_30min_walk": 1 }, "geometry": { "type": "Point", "coordinates": [ -8.645831931334344, 41.156122469144826 ] } },
{ "type": "Feature", "properties": { "point_id": 5537, "best_station_walk": 5706, "t_walk_min": 17.03, "distance_m": 1020.91, "by_mode": { "WALK": { "distance_m": 1020.91, "duration_min": 17.03 } }, "n_metro_15min_walk": 0, "n_metro_30min_walk": 3 }, "geometry": { "type": "Point", "coordinates": [ -8.635514688510398, 41.156167931199356 ] } },
{ "type": "Feature", "properties": { "point_id": 5538, "best_station_walk": 5704, "t_walk_min": 9.15, "distance_m": 516.84, "by_mode": { "WALK": { "distance_m": 516.84, "duration_min": 9.15 } }, "n_metro_15min_walk": 3, "n_metro_30min_walk": 6 }, "geometry": { "type": "Point", "coordinates": [ -8.625197422304227, 41.156212469211368 ] } },
{ "type": "Feature", "properties": { "point_id": 5539, "best_station_walk": 5713, "t_walk_min": 2.53, "distance_m": 186.47, "by_mode": { "WALK": { "distance_m": 186.47, "duration_min": 2.53 } }, "n_metro_15min_walk": 3, "n_metro_30min_walk": 9 }, "geometry": { "type": "Point", "coordinates": [ -8.614880133195912, 41.156256083174867 ] } },
{ "type": "Feature", "properties": { "point_id": 5540, "best_station_walk": 5775, "t_walk_min": 9.48, "distance_m": 552.75, "by_mode": { "WALK": { "distance_m": 552.75, "duration_min": 9.48 } }, "n_metro_15min_walk": 3, "n_metro_30min_walk": 11 }, "geometry": { "type": "Point", "coordinates": [ -8.604562821665542, 41.156298773084053 ] } },
{ "type": "Feature", "properties": { "point_id": 5541, "best_station_walk": 5697, "t_walk_min": 15.77, "distance_m": 954.91, "by_mode": { "WALK": { "distance_m": 954.91, "duration_min": 15.77 } }, "n_metro_15min_walk": 0, "n_metro_30min_walk": 8 }, "geometry": { "type": "Point", "coordinates": [ -8.594245488193206, 41.156340538933208 ] } },
{ "type": "Feature", "properties": { "point_id": 5542, "best_station_walk": 5708, "t_walk_min": 8.93, "distance_m": 552.94, "by_mode": { "WALK": { "distance_m": 552.94, "duration_min": 8.93 } }, "n_metro_15min_walk": 1, "n_metro_30min_walk": 3 }, "geometry": { "type": "Point", "coordinates": [ -8.583928133259004, 41.156381380716745 ] } },
{ "type": "Feature", "properties": { "point_id": 5543, "best_station_walk": 5708, "t_walk_min": 19.65, "distance_m": 1199.24, "by_mode": { "WALK": { "distance_m": 1199.24, "duration_min": 19.65 } }, "n_metro_15min_walk": 0, "n_metro_30min_walk": 3 }, "geometry": { "type": "Point", "coordinates": [ -8.573610757343042, 41.156421298429223 ] } },
{ "type": "Feature", "properties": { "point_id": 5614, "best_station_walk": 5721, "t_walk_min": 25.42, "distance_m": 1640.84, "by_mode": { "WALK": { "distance_m": 1640.84, "duration_min": 25.42 } }, "n_metro_15min_walk": 0, "n_metro_30min_walk": 2 }, "geometry": { "type": "Point", "coordinates": [ -8.651043704163177, 41.16285240446701 ] } },
{ "type": "Feature", "properties": { "point_id": 5615, "best_station_walk": 5711, "t_walk_min": 8.58, "distance_m": 575.83, "by_mode": { "WALK": { "distance_m": 575.83, "duration_min": 8.58 } }, "n_metro_15min_walk": 1, "n_metro_30min_walk": 3 }, "geometry": { "type": "Point", "coordinates": [ -8.640725414264024, 41.162898339393259 ] } },
{ "type": "Feature", "properties": { "point_id": 5616, "best_station_walk": 5706, "t_walk_min": 7.55, "distance_m": 494.33, "by_mode": { "WALK": { "distance_m": 494.33, "duration_min": 7.55 } }, "n_metro_15min_walk": 2, "n_metro_30min_walk": 5 }, "geometry": { "type": "Point", "coordinates": [ -8.630407100733427, 41.162943350061639 ] } },
{ "type": "Feature", "properties": { "point_id": 5617, "best_station_walk": 5704, "t_walk_min": 10.25, "distance_m": 686.87, "by_mode": { "WALK": { "distance_m": 686.87, "duration_min": 10.25 } }, "n_metro_15min_walk": 3, "n_metro_30min_walk": 6 }, "geometry": { "type": "Point", "coordinates": [ -8.620088764051649, 41.162987436466125 ] } },
{ "type": "Feature", "properties": { "point_id": 5618, "best_station_walk": 5775, "t_walk_min": 12.12, "distance_m": 651.48, "by_mode": { "WALK": { "distance_m": 651.48, "duration_min": 12.12 } }, "n_metro_15min_walk": 2, "n_metro_30min_walk": 9 }, "geometry": { "type": "Point", "coordinates": [ -8.609770404698962, 41.163030598600827 ] } },
{ "type": "Feature", "properties": { "point_id": 5619, "best_station_walk": 5768, "t_walk_min": 4.87, "distance_m": 288.88, "by_mode": { "WALK": { "distance_m": 288.88, "duration_min": 4.87 } }, "n_metro_15min_walk": 3, "n_metro_30min_walk": 8 }, "geometry": { "type": "Point", "coordinates": [ -8.599452023155637, 41.163072836459982 ] } },
{ "type": "Feature", "properties": { "point_id": 5620, "best_station_walk": 5768, "t_walk_min": 13.33, "distance_m": 895.64, "by_mode": { "WALK": { "distance_m": 895.64, "duration_min": 13.33 } }, "n_metro_15min_walk": 2, "n_metro_30min_walk": 7 }, "geometry": { "type": "Point", "coordinates": [ -8.589133619901961, 41.163114150037956 ] } },
{ "type": "Feature", "properties": { "point_id": 5621, "best_station_walk": 5707, "t_walk_min": 8.77, "distance_m": 571.75, "by_mode": { "WALK": { "distance_m": 571.75, "duration_min": 8.77 } }, "n_metro_15min_walk": 1, "n_metro_30min_walk": 4 }, "geometry": { "type": "Point", "coordinates": [ -8.578815195418221, 41.163154539329199 ] } },
{ "type": "Feature", "properties": { "point_id": 5622, "best_station_walk": 5707, "t_walk_min": 24.12, "distance_m": 1566.24, "by_mode": { "WALK": { "distance_m": 1566.24, "duration_min": 24.12 } }, "n_metro_15min_walk": 0, "n_metro_30min_walk": 1 }, "geometry": { "type": "Point", "coordinates": [ -8.568496750184712, 41.163194004328311 ] } },
{ "type": "Feature", "properties": { "point_id": 5623, "best_station_walk": 5714, "t_walk_min": 27.52, "distance_m": 1798.6, "by_mode": { "WALK": { "distance_m": 1798.6, "duration_min": 27.52 } }, "n_metro_15min_walk": 0, "n_metro_30min_walk": 1 }, "geometry": { "type": "Point", "coordinates": [ -8.558178284681736, 41.163232545030048 ] } },
{ "type": "Feature", "properties": { "point_id": 5624, "best_station_walk": 5710, "t_walk_min": 17.22, "distance_m": 1217.21, "by_mode": { "WALK": { "distance_m": 1217.21, "duration_min": 17.22 } }, "n_metro_15min_walk": 0, "n_metro_30min_walk": 3 }, "geometry": { "type": "Point", "coordinates": [ -8.547859799389601, 41.163270161429253 ] } },
{ "type": "Feature", "properties": { "point_id": 5625, "best_station_walk": 5710, "t_walk_min": 18.3, "distance_m": 1177.84, "by_mode": { "WALK": { "distance_m": 1177.84, "duration_min": 18.3 } }, "n_metro_15min_walk": 0, "n_metro_30min_walk": 2 }, "geometry": { "type": "Point", "coordinates": [ -8.537541294788616, 41.163306853520886 ] } },
{ "type": "Feature", "properties": { "point_id": 5690, "best_station_walk": 5715, "t_walk_min": 24.2, "distance_m": 1508.27, "by_mode": { "WALK": { "distance_m": 1508.27, "duration_min": 24.2 } }, "n_metro_15min_walk": 0, "n_metro_30min_walk": 2 }, "geometry": { "type": "Point", "coordinates": [ -8.686207632089362, 41.169361099377085 ] } },
{ "type": "Feature", "properties": { "point_id": 5691, "best_station_walk": 5701, "t_walk_min": 24.33, "distance_m": 1591.2, "by_mode": { "WALK": { "distance_m": 1591.2, "duration_min": 24.33 } }, "n_metro_15min_walk": 0, "n_metro_30min_walk": 3 }, "geometry": { "type": "Point", "coordinates": [ -8.676895149015746, 41.16948650033423 ] } },
{ "type": "Feature", "properties": { "point_id": 5692, "best_station_walk": 5719, "t_walk_min": 27.95, "distance_m": 1740.13, "by_mode": { "WALK": { "distance_m": 1740.13, "duration_min": 27.95 } }, "n_metro_15min_walk": 0, "n_metro_30min_walk": 1 }, "geometry": { "type": "Point", "coordinates": [ -8.666575861013554, 41.169534757278946 ] } },
{ "type": "Feature", "properties": { "point_id": 5693, "best_station_walk": 5729, "t_walk_min": 27.25, "distance_m": 1786.15, "by_mode": { "WALK": { "distance_m": 1786.15, "duration_min": 27.25 } }, "n_metro_15min_walk": 0, "n_metro_30min_walk": 4 }, "geometry": { "type": "Point", "coordinates": [ -8.656256548169639, 41.169582089762962 ] } },
{ "type": "Feature", "properties": { "point_id": 5694, "best_station_walk": 5721, "t_walk_min": 12.12, "distance_m": 802.97, "by_mode": { "WALK": { "distance_m": 802.97, "duration_min": 12.12 } }, "n_metro_15min_walk": 1, "n_metro_30min_walk": 3 }, "geometry": { "type": "Point", "coordinates": [ -8.645937210964432, 41.169628497779954 ] } },
{ "type": "Feature", "properties": { "point_id": 5695, "best_station_walk": 5711, "t_walk_min": 10.0, "distance_m": 616.19, "by_mode": { "WALK": { "distance_m": 616.19, "duration_min": 10.0 } }, "n_metro_15min_walk": 2, "n_metro_30min_walk": 4 }, "geometry": { "type": "Point", "coordinates": [ -8.635617849878368, 41.16967398132374 ] } },
{ "type": "Feature", "properties": { "point_id": 5696, "best_station_walk": 5706, "t_walk_min": 17.37, "distance_m": 1117.72, "by_mode": { "WALK": { "distance_m": 1117.72, "duration_min": 17.37 } }, "n_metro_15min_walk": 0, "n_metro_30min_walk": 4 }, "geometry": { "type": "Point", "coordinates": [ -8.6252984653919, 41.169718540388224 ] } },
{ "type": "Feature", "properties": { "point_id": 5697, "best_station_walk": 5776, "t_walk_min": 20.68, "distance_m": 1301.03, "by_mode": { "WALK": { "distance_m": 1301.03, "duration_min": 20.68 } }, "n_metro_15min_walk": 0, "n_metro_30min_walk": 6 }, "geometry": { "type": "Point", "coordinates": [ -8.614979057985474, 41.169762174967452 ] } },
{ "type": "Feature", "properties": { "point_id": 5698, "best_station_walk": 5777, "t_walk_min": 7.53, "distance_m": 501.61, "by_mode": { "WALK": { "distance_m": 501.61, "duration_min": 7.53 } }, "n_metro_15min_walk": 3, "n_metro_30min_walk": 6 }, "geometry": { "type": "Point", "coordinates": [ -8.604659628139554, 41.169804885055612 ] } },
{ "type": "Feature", "properties": { "point_id": 5699, "best_station_walk": 5777, "t_walk_min": 5.9, "distance_m": 386.39, "by_mode": { "WALK": { "distance_m": 386.39, "duration_min": 5.9 } }, "n_metro_15min_walk": 2, "n_metro_30min_walk": 8 }, "geometry": { "type": "Point", "coordinates": [ -8.594340176334605, 41.169846670646969 ] } },
{ "type": "Feature", "properties": { "point_id": 5700, "best_station_walk": 5717, "t_walk_min": 13.13, "distance_m": 897.4, "by_mode": { "WALK": { "distance_m": 897.4, "duration_min": 13.13 } }, "n_metro_15min_walk": 2, "n_metro_30min_walk": 6 }, "geometry": { "type": "Point", "coordinates": [ -8.584020703051097, 41.169887531735959 ] } },
{ "type": "Feature", "properties": { "point_id": 5701, "best_station_walk": 5707, "t_walk_min": 10.65, "distance_m": 669.1, "by_mode": { "WALK": { "distance_m": 669.1, "duration_min": 10.65 } }, "n_metro_15min_walk": 2, "n_metro_30min_walk": 3 }, "geometry": { "type": "Point", "coordinates": [ -8.573701208769512, 41.169927468317091 ] } },
{ "type": "Feature", "properties": { "point_id": 5702, "best_station_walk": 5714, "t_walk_min": 13.13, "distance_m": 789.0, "by_mode": { "WALK": { "distance_m": 789.0, "duration_min": 13.13 } }, "n_metro_15min_walk": 1, "n_metro_30min_walk": 3 }, "geometry": { "type": "Point", "coordinates": [ -8.563381693970332, 41.169966480385042 ] } },
{ "type": "Feature", "properties": { "point_id": 5703, "best_station_walk": 5710, "t_walk_min": 17.8, "distance_m": 1135.08, "by_mode": { "WALK": { "distance_m": 1135.08, "duration_min": 17.8 } }, "n_metro_15min_walk": 0, "n_metro_30min_walk": 6 }, "geometry": { "type": "Point", "coordinates": [ -8.553062159134051, 41.170004567934619 ] } },
{ "type": "Feature", "properties": { "point_id": 5704, "best_station_walk": 5710, "t_walk_min": 3.63, "distance_m": 191.66, "by_mode": { "WALK": { "distance_m": 191.66, "duration_min": 3.63 } }, "n_metro_15min_walk": 2, "n_metro_30min_walk": 3 }, "geometry": { "type": "Point", "coordinates": [ -8.542742604741163, 41.170041730960691 ] } },
{ "type": "Feature", "properties": { "point_id": 5705, "best_station_walk": 5710, "t_walk_min": 20.37, "distance_m": 1309.23, "by_mode": { "WALK": { "distance_m": 1309.23, "duration_min": 20.37 } }, "n_metro_15min_walk": 0, "n_metro_30min_walk": 2 }, "geometry": { "type": "Point", "coordinates": [ -8.532423031272174, 41.170077969458326 ] } },
{ "type": "Feature", "properties": { "point_id": 5769, "best_station_walk": 5715, "t_walk_min": 20.58, "distance_m": 1303.9, "by_mode": { "WALK": { "distance_m": 1303.9, "duration_min": 20.58 } }, "n_metro_15min_walk": 0, "n_metro_30min_walk": 3 }, "geometry": { "type": "Point", "coordinates": [ -8.701833986451135, 41.177407187435755 ] } },
{ "type": "Feature", "properties": { "point_id": 5770, "best_station_walk": 5715, "t_walk_min": 9.13, "distance_m": 545.16, "by_mode": { "WALK": { "distance_m": 545.16, "duration_min": 9.13 } }, "n_metro_15min_walk": 2, "n_metro_30min_walk": 6 }, "geometry": { "type": "Point", "coordinates": [ -8.690954227132503, 41.17718543810259 ] } },
{ "type": "Feature", "properties": { "point_id": 5771, "best_station_walk": 5701, "t_walk_min": 12.45, "distance_m": 803.96, "by_mode": { "WALK": { "distance_m": 803.96, "duration_min": 12.45 } }, "n_metro_15min_walk": 2, "n_metro_30min_walk": 7 }, "geometry": { "type": "Point", "coordinates": [ -8.682111159004437, 41.1762149881718 ] } },
{ "type": "Feature", "properties": { "point_id": 5772, "best_station_walk": 5719, "t_walk_min": 9.63, "distance_m": 551.65, "by_mode": { "WALK": { "distance_m": 551.65, "duration_min": 9.63 } }, "n_metro_15min_walk": 2, "n_metro_30min_walk": 5 }, "geometry": { "type": "Point", "coordinates": [ -8.671790823965098, 41.176263718856859 ] } },
{ "type": "Feature", "properties": { "point_id": 5773, "best_station_walk": 5720, "t_walk_min": 15.5, "distance_m": 857.33, "by_mode": { "WALK": { "distance_m": 857.33, "duration_min": 15.5 } }, "n_metro_15min_walk": 0, "n_metro_30min_walk": 5 }, "geometry": { "type": "Point", "coordinates": [ -8.661470463834071, 41.176311524866009 ] } },
{ "type": "Feature", "properties": { "point_id": 5774, "best_station_walk": 5729, "t_walk_min": 12.82, "distance_m": 876.29, "by_mode": { "WALK": { "distance_m": 876.29, "duration_min": 12.82 } }, "n_metro_15min_walk": 1, "n_metro_30min_walk": 6 }, "geometry": { "type": "Point", "coordinates": [ -8.651150079091966, 41.176358406192847 ] } },
{ "type": "Feature", "properties": { "point_id": 5775, "best_station_walk": 5721, "t_walk_min": 7.7, "distance_m": 497.7, "by_mode": { "WALK": { "distance_m": 497.7, "duration_min": 7.7 } }, "n_metro_15min_walk": 2, "n_metro_30min_walk": 5 }, "geometry": { "type": "Point", "coordinates": [ -8.640829670219407, 41.176404362831121 ] } },
{ "type": "Feature", "properties": { "point_id": 5776, "best_station_walk": 5721, "t_walk_min": 17.13, "distance_m": 1191.12, "by_mode": { "WALK": { "distance_m": 1191.12, "duration_min": 17.13 } }, "n_metro_15min_walk": 0, "n_metro_30min_walk": 2 }, "geometry": { "type": "Point", "coordinates": [ -8.630509237697023, 41.176449394774679 ] } },
{ "type": "Feature", "properties": { "point_id": 5777, "best_station_walk": 5776, "t_walk_min": 26.82, "distance_m": 1747.56, "by_mode": { "WALK": { "distance_m": 1747.56, "duration_min": 26.82 } }, "n_metro_15min_walk": 0, "n_metro_30min_walk": 2 }, "geometry": { "type": "Point", "coordinates": [ -8.620188782005449, 41.176493502017507 ] } },
{ "type": "Feature", "properties": { "point_id": 5778, "best_station_walk": 5776, "t_walk_min": 11.55, "distance_m": 727.38, "by_mode": { "WALK": { "distance_m": 727.38, "duration_min": 11.55 } }, "n_metro_15min_walk": 2, "n_metro_30min_walk": 5 }, "geometry": { "type": "Point", "coordinates": [ -8.60986830362533, 41.176536684553696 ] } },
{ "type": "Feature", "properties": { "point_id": 5779, "best_station_walk": 5776, "t_walk_min": 10.38, "distance_m": 638.86, "by_mode": { "WALK": { "distance_m": 638.86, "duration_min": 10.38 } }, "n_metro_15min_walk": 2, "n_metro_30min_walk": 5 }, "geometry": { "type": "Point", "coordinates": [ -8.599547803037314, 41.176578942377496 ] } },
{ "type": "Feature", "properties": { "point_id": 5780, "best_station_walk": 5776, "t_walk_min": 21.88, "distance_m": 1500.03, "by_mode": { "WALK": { "distance_m": 1500.03, "duration_min": 21.88 } }, "n_metro_15min_walk": 0, "n_metro_30min_walk": 6 }, "geometry": { "type": "Point", "coordinates": [ -8.589227280722058, 41.176620275483238 ] } },
{ "type": "Feature", "properties": { "point_id": 5781, "best_station_walk": 5718, "t_walk_min": 13.55, "distance_m": 973.69, "by_mode": { "WALK": { "distance_m": 973.69, "duration_min": 13.55 } }, "n_metro_15min_walk": 1, "n_metro_30min_walk": 3 }, "geometry": { "type": "Point", "coordinates": [ -8.578906737160224, 41.176660683865386 ] } },
{ "type": "Feature", "properties": { "point_id": 5782, "best_station_walk": 5718, "t_walk_min": 13.68, "distance_m": 884.25, "by_mode": { "WALK": { "distance_m": 884.25, "duration_min": 13.68 } }, "n_metro_15min_walk": 1, "n_metro_30min_walk": 5 }, "geometry": { "type": "Point", "coordinates": [ -8.568586172832481, 41.176700167518575 ] } },
{ "type": "Feature", "properties": { "point_id": 5783, "best_station_walk": 5722, "t_walk_min": 7.17, "distance_m": 443.12, "by_mode": { "WALK": { "distance_m": 443.12, "duration_min": 7.17 } }, "n_metro_15min_walk": 2, "n_metro_30min_walk": 7 }, "geometry": { "type": "Point", "coordinates": [ -8.558265588219502, 41.176738726437506 ] } },
{ "type": "Feature", "properties": { "point_id": 5784, "best_station_walk": 5728, "t_walk_min": 11.22, "distance_m": 760.01, "by_mode": { "WALK": { "distance_m": 760.01, "duration_min": 11.22 } }, "n_metro_15min_walk": 3, "n_metro_30min_walk": 7 }, "geometry": { "type": "Point", "coordinates": [ -8.547944983801969, 41.176776360617019 ] } },
{ "type": "Feature", "properties": { "point_id": 5785, "best_station_walk": 5728, "t_walk_min": 15.32, "distance_m": 1050.3, "by_mode": { "WALK": { "distance_m": 1050.3, "duration_min": 15.32 } }, "n_metro_15min_walk": 0, "n_metro_30min_walk": 4 }, "geometry": { "type": "Point", "coordinates": [ -8.537624360060571, 41.176813070052084 ] } },
{ "type": "Feature", "properties": { "point_id": 5786, "best_station_walk": 5728, "t_walk_min": 27.93, "distance_m": 1948.62, "by_mode": { "WALK": { "distance_m": 1948.62, "duration_min": 27.93 } }, "n_metro_15min_walk": 0, "n_metro_30min_walk": 3 }, "geometry": { "type": "Point", "coordinates": [ -8.527303717475997, 41.176848854737806 ] } },
{ "type": "Feature", "properties": { "point_id": 5849, "best_station_walk": 5700, "t_walk_min": 10.07, "distance_m": 653.57, "by_mode": { "WALK": { "distance_m": 653.57, "duration_min": 10.07 } }, "n_metro_15min_walk": 2, "n_metro_30min_walk": 5 }, "geometry": { "type": "Point", "coordinates": [ -8.697313389367331, 41.183118355041074 ] } },
{ "type": "Feature", "properties": { "point_id": 5850, "best_station_walk": 5700, "t_walk_min": 6.48, "distance_m": 464.63, "by_mode": { "WALK": { "distance_m": 464.63, "duration_min": 6.48 } }, "n_metro_15min_walk": 5, "n_metro_30min_walk": 6 }, "geometry": { "type": "Point", "coordinates": [ -8.687328241592724, 41.182943225211474 ] } },
{ "type": "Feature", "properties": { "point_id": 5851, "best_station_walk": 5701, "t_walk_min": 9.43, "distance_m": 601.42, "by_mode": { "WALK": { "distance_m": 601.42, "duration_min": 9.43 } }, "n_metro_15min_walk": 1, "n_metro_30min_walk": 7 }, "geometry": { "type": "Point", "coordinates": [ -8.677006859285788, 41.182992429856057 ] } },
{ "type": "Feature", "properties": { "point_id": 5852, "best_station_walk": 5720, "t_walk_min": 7.38, "distance_m": 408.93, "by_mode": { "WALK": { "distance_m": 408.93, "duration_min": 7.38 } }, "n_metro_15min_walk": 3, "n_metro_30min_walk": 7 }, "geometry": { "type": "Point", "coordinates": [ -8.666685451637003, 41.183040709609479 ] } },
{ "type": "Feature", "properties": { "point_id": 5853, "best_station_walk": 5725, "t_walk_min": 8.72, "distance_m": 545.84, "by_mode": { "WALK": { "distance_m": 545.84, "duration_min": 8.72 } }, "n_metro_15min_walk": 3, "n_metro_30min_walk": 8 }, "geometry": { "type": "Point", "coordinates": [ -8.656364019127166, 41.183088064465316 ] } },
{ "type": "Feature", "properties": { "point_id": 5854, "best_station_walk": 5725, "t_walk_min": 10.57, "distance_m": 702.6, "by_mode": { "WALK": { "distance_m": 702.6, "duration_min": 10.57 } }, "n_metro_15min_walk": 2, "n_metro_30min_walk": 7 }, "geometry": { "type": "Point", "coordinates": [ -8.646042562237085, 41.183134494417196 ] } },
{ "type": "Feature", "properties": { "point_id": 5855, "best_station_walk": 5721, "t_walk_min": 24.28, "distance_m": 1655.86, "by_mode": { "WALK": { "distance_m": 1655.86, "duration_min": 24.28 } }, "n_metro_15min_walk": 0, "n_metro_30min_walk": 3 }, "geometry": { "type": "Point", "coordinates": [ -8.635721081447571, 41.183179999458957 ] } },
{ "type": "Feature", "properties": { "point_id": 5857, "best_station_walk": 5791, "t_walk_min": 18.23, "distance_m": 1140.09, "by_mode": { "WALK": { "distance_m": 1140.09, "duration_min": 18.23 } }, "n_metro_15min_walk": 0, "n_metro_30min_walk": 3 }, "geometry": { "type": "Point", "coordinates": [ -8.61507805009353, 41.183268234787811 ] } },
{ "type": "Feature", "properties": { "point_id": 5858, "best_station_walk": 5791, "t_walk_min": 7.63, "distance_m": 481.16, "by_mode": { "WALK": { "distance_m": 481.16, "duration_min": 7.63 } }, "n_metro_15min_walk": 2, "n_metro_30min_walk": 3 }, "geometry": { "type": "Point", "coordinates": [ -8.604756500490661, 41.183310965063136 ] } },
{ "type": "Feature", "properties": { "point_id": 5859, "best_station_walk": 5791, "t_walk_min": 22.15, "distance_m": 1403.34, "by_mode": { "WALK": { "distance_m": 1403.34, "duration_min": 22.15 } }, "n_metro_15min_walk": 0, "n_metro_30min_walk": 2 }, "geometry": { "type": "Point", "coordinates": [ -8.59443492891168, 41.183352770404703 ] } },
{ "type": "Feature", "properties": { "point_id": 5860, "best_station_walk": 5718, "t_walk_min": 27.55, "distance_m": 1866.8, "by_mode": { "WALK": { "distance_m": 1866.8, "duration_min": 27.55 } }, "n_metro_15min_walk": 0, "n_metro_30min_walk": 2 }, "geometry": { "type": "Point", "coordinates": [ -8.584113335837431, 41.183393650806956 ] } },
{ "type": "Feature", "properties": { "point_id": 5861, "best_station_walk": 5718, "t_walk_min": 23.9, "distance_m": 1540.0, "by_mode": { "WALK": { "distance_m": 1540.0, "duration_min": 23.9 } }, "n_metro_15min_walk": 0, "n_metro_30min_walk": 3 }, "geometry": { "type": "Point", "coordinates": [ -8.573791721748767, 41.183433606264423 ] } },
{ "type": "Feature", "properties": { "point_id": 5862, "best_station_walk": 5722, "t_walk_min": 15.92, "distance_m": 1006.27, "by_mode": { "WALK": { "distance_m": 1006.27, "duration_min": 15.92 } }, "n_metro_15min_walk": 0, "n_metro_30min_walk": 3 }, "geometry": { "type": "Point", "coordinates": [ -8.563470087126545, 41.183472636771747 ] } },
{ "type": "Feature", "properties": { "point_id": 5863, "best_station_walk": 5702, "t_walk_min": 1.12, "distance_m": 79.4, "by_mode": { "WALK": { "distance_m": 79.4, "duration_min": 1.12 } }, "n_metro_15min_walk": 3, "n_metro_30min_walk": 6 }, "geometry": { "type": "Point", "coordinates": [ -8.553148432451632, 41.183510742323719 ] } },
{ "type": "Feature", "properties": { "point_id": 5864, "best_station_walk": 5698, "t_walk_min": 7.28, "distance_m": 442.35, "by_mode": { "WALK": { "distance_m": 442.35, "duration_min": 7.28 } }, "n_metro_15min_walk": 2, "n_metro_30min_walk": 6 }, "geometry": { "type": "Point", "coordinates": [ -8.5428267582049, 41.183547922915238 ] } },
{ "type": "Feature", "properties": { "point_id": 5865, "best_station_walk": 5728, "t_walk_min": 21.73, "distance_m": 1582.9, "by_mode": { "WALK": { "distance_m": 1582.9, "duration_min": 21.73 } }, "n_metro_15min_walk": 0, "n_metro_30min_walk": 4 }, "geometry": { "type": "Point", "coordinates": [ -8.532505064867221, 41.183584178541338 ] } },
{ "type": "Feature", "properties": { "point_id": 5928, "best_station_walk": 5716, "t_walk_min": 17.8, "distance_m": 1147.41, "by_mode": { "WALK": { "distance_m": 1147.41, "duration_min": 17.8 } }, "n_metro_15min_walk": 0, "n_metro_30min_walk": 3 }, "geometry": { "type": "Point", "coordinates": [ -8.702551790667844, 41.189637340505662 ] } },
{ "type": "Feature", "properties": { "point_id": 5929, "best_station_walk": 5716, "t_walk_min": 5.08, "distance_m": 298.19, "by_mode": { "WALK": { "distance_m": 298.19, "duration_min": 5.08 } }, "n_metro_15min_walk": 3, "n_metro_30min_walk": 5 }, "geometry": { "type": "Point", "coordinates": [ -8.692546397261303, 41.189671211286395 ] } },
{ "type": "Feature", "properties": { "point_id": 5930, "best_station_walk": 5723, "t_walk_min": 6.02, "distance_m": 399.29, "by_mode": { "WALK": { "distance_m": 399.29, "duration_min": 6.02 } }, "n_metro_15min_walk": 1, "n_metro_30min_walk": 5 }, "geometry": { "type": "Point", "coordinates": [ -8.68222396745632, 41.189720890109712 ] } },
{ "type": "Feature", "properties": { "point_id": 5931, "best_station_walk": 5727, "t_walk_min": 14.75, "distance_m": 950.78, "by_mode": { "WALK": { "distance_m": 950.78, "duration_min": 14.75 } }, "n_metro_15min_walk": 1, "n_metro_30min_walk": 12 }, "geometry": { "type": "Point", "coordinates": [ -8.671901512059142, 41.189769643826622 ] } },
{ "type": "Feature", "properties": { "point_id": 5932, "best_station_walk": 5727, "t_walk_min": 1.68, "distance_m": 108.42, "by_mode": { "WALK": { "distance_m": 108.42, "duration_min": 1.68 } }, "n_metro_15min_walk": 4, "n_metro_30min_walk": 7 }, "geometry": { "type": "Point", "coordinates": [ -8.661579031550746, 41.189817472430626 ] } },
{ "type": "Feature", "properties": { "point_id": 5933, "best_station_walk": 5724, "t_walk_min": 8.92, "distance_m": 622.58, "by_mode": { "WALK": { "distance_m": 622.58, "duration_min": 8.92 } }, "n_metro_15min_walk": 2, "n_metro_30min_walk": 8 }, "geometry": { "type": "Point", "coordinates": [ -8.651256526412126, 41.18986437591532 ] } },
{ "type": "Feature", "properties": { "point_id": 5934, "best_station_walk": 5724, "t_walk_min": 18.32, "distance_m": 1288.0, "by_mode": { "WALK": { "distance_m": 1288.0, "duration_min": 18.32 } }, "n_metro_15min_walk": 0, "n_metro_30min_walk": 7 }, "geometry": { "type": "Point", "coordinates": [ -8.640933997124273, 41.189910354274438 ] } },
{ "type": "Feature", "properties": { "point_id": 5937, "best_station_walk": 5791, "t_walk_min": 23.85, "distance_m": 1532.36, "by_mode": { "WALK": { "distance_m": 1532.36, "duration_min": 23.85 } }, "n_metro_15min_walk": 0, "n_metro_30min_walk": 2 }, "geometry": { "type": "Point", "coordinates": [ -8.609966269175395, 41.190042738537421 ] } },
{ "type": "Feature", "properties": { "point_id": 5938, "best_station_walk": 5791, "t_walk_min": 22.87, "distance_m": 1414.87, "by_mode": { "WALK": { "distance_m": 1414.87, "duration_min": 22.87 } }, "n_metro_15min_walk": 0, "n_metro_30min_walk": 2 }, "geometry": { "type": "Point", "coordinates": [ -8.59964364810072, 41.190085016333953 ] } },
{ "type": "Feature", "properties": { "point_id": 5941, "best_station_walk": 5702, "t_walk_min": 26.35, "distance_m": 1825.86, "by_mode": { "WALK": { "distance_m": 1825.86, "duration_min": 26.35 } }, "n_metro_15min_walk": 0, "n_metro_30min_walk": 1 }, "geometry": { "type": "Point", "coordinates": [ -8.568675656335957, 41.190206298771059 ] } },
{ "type": "Feature", "properties": { "point_id": 5942, "best_station_walk": 5702, "t_walk_min": 16.05, "distance_m": 1123.75, "by_mode": { "WALK": { "distance_m": 1123.75, "duration_min": 16.05 } }, "n_metro_15min_walk": 0, "n_metro_30min_walk": 4 }, "geometry": { "type": "Point", "coordinates": [ -8.558352951170933, 41.19024487591458 ] } },
{ "type": "Feature", "properties": { "point_id": 5943, "best_station_walk": 5698, "t_walk_min": 12.55, "distance_m": 792.18, "by_mode": { "WALK": { "distance_m": 792.18, "duration_min": 12.55 } }, "n_metro_15min_walk": 1, "n_metro_30min_walk": 4 }, "geometry": { "type": "Point", "coordinates": [ -8.548030226185947, 41.190282527881628 ] } },
{ "type": "Feature", "properties": { "point_id": 5944, "best_station_walk": 5698, "t_walk_min": 17.62, "distance_m": 1209.79, "by_mode": { "WALK": { "distance_m": 1209.79, "duration_min": 17.62 } }, "n_metro_15min_walk": 0, "n_metro_30min_walk": 4 }, "geometry": { "type": "Point", "coordinates": [ -8.537707481862055, 41.190319254667166 ] } },
{ "type": "Feature", "properties": { "point_id": 6009, "best_station_walk": 5716, "t_walk_min": 20.12, "distance_m": 1270.87, "by_mode": { "WALK": { "distance_m": 1270.87, "duration_min": 20.12 } }, "n_metro_15min_walk": 0, "n_metro_30min_walk": 3 }, "geometry": { "type": "Point", "coordinates": [ -8.697765626491051, 41.19639894622965 ] } },
{ "type": "Feature", "properties": { "point_id": 6010, "best_station_walk": 5716, "t_walk_min": 28.03, "distance_m": 1685.66, "by_mode": { "WALK": { "distance_m": 1685.66, "duration_min": 28.03 } }, "n_metro_15min_walk": 0, "n_metro_30min_walk": 2 }, "geometry": { "type": "Point", "coordinates": [ -8.687442148957585, 41.196449099450959 ] } },
{ "type": "Feature", "properties": { "point_id": 6011, "best_station_walk": 5723, "t_walk_min": 25.47, "distance_m": 1823.98, "by_mode": { "WALK": { "distance_m": 1823.98, "duration_min": 25.47 } }, "n_metro_15min_walk": 0, "n_metro_30min_walk": 1 }, "geometry": { "type": "Point", "coordinates": [ -8.677118645581382, 41.196498327350618 ] } },
{ "type": "Feature", "properties": { "point_id": 6012, "best_station_walk": 5727, "t_walk_min": 16.87, "distance_m": 1058.88, "by_mode": { "WALK": { "distance_m": 1058.88, "duration_min": 16.87 } }, "n_metro_15min_walk": 0, "n_metro_30min_walk": 5 }, "geometry": { "type": "Point", "coordinates": [ -8.666795116843607, 41.196546629922032 ] } },
{ "type": "Feature", "properties": { "point_id": 6013, "best_station_walk": 5737, "t_walk_min": 5.05, "distance_m": 333.93, "by_mode": { "WALK": { "distance_m": 333.93, "duration_min": 5.05 } }, "n_metro_15min_walk": 3, "n_metro_30min_walk": 8 }, "geometry": { "type": "Point", "coordinates": [ -8.656471563225436, 41.196594007158765 ] } },
{ "type": "Feature", "properties": { "point_id": 6014, "best_station_walk": 5755, "t_walk_min": 18.27, "distance_m": 1255.08, "by_mode": { "WALK": { "distance_m": 1255.08, "duration_min": 18.27 } }, "n_metro_15min_walk": 0, "n_metro_30min_walk": 8 }, "geometry": { "type": "Point", "coordinates": [ -8.646147985208046, 41.196640459054464 ] } },
{ "type": "Feature", "properties": { "point_id": 6015, "best_station_walk": 5755, "t_walk_min": 24.35, "distance_m": 1652.33, "by_mode": { "WALK": { "distance_m": 1652.33, "duration_min": 24.35 } }, "n_metro_15min_walk": 0, "n_metro_30min_walk": 2 }, "geometry": { "type": "Point", "coordinates": [ -8.63582438327262, 41.196685985602905 ] } },
{ "type": "Feature", "properties": { "point_id": 6018, "best_station_walk": 5791, "t_walk_min": 28.97, "distance_m": 1884.72, "by_mode": { "WALK": { "distance_m": 1884.72, "duration_min": 28.97 } }, "n_metro_15min_walk": 0, "n_metro_30min_walk": 1 }, "geometry": { "type": "Point", "coordinates": [ -8.604853438770116, 41.196817013104528 ] } },
{ "type": "Feature", "properties": { "point_id": 6024, "best_station_walk": 5698, "t_walk_min": 25.82, "distance_m": 1728.56, "by_mode": { "WALK": { "distance_m": 1728.56, "duration_min": 25.82 } }, "n_metro_15min_walk": 0, "n_metro_30min_walk": 1 }, "geometry": { "type": "Point", "coordinates": [ -8.542910968941474, 41.19705408294913 ] } },
{ "type": "Feature", "properties": { "point_id": 6093, "best_station_walk": 5734, "t_walk_min": 19.52, "distance_m": 1250.89, "by_mode": { "WALK": { "distance_m": 1250.89, "duration_min": 19.52 } }, "n_metro_15min_walk": 0, "n_metro_30min_walk": 2 }, "geometry": { "type": "Point", "coordinates": [ -8.661687673158109, 41.20332338798076 ] } },
{ "type": "Feature", "properties": { "point_id": 6094, "best_station_walk": 5734, "t_walk_min": 11.72, "distance_m": 789.22, "by_mode": { "WALK": { "distance_m": 789.22, "duration_min": 11.72 } }, "n_metro_15min_walk": 2, "n_metro_30min_walk": 4 }, "geometry": { "type": "Point", "coordinates": [ -8.651363046179984, 41.203370313632306 ] } },
{ "type": "Feature", "properties": { "point_id": 6095, "best_station_walk": 5755, "t_walk_min": 11.92, "distance_m": 795.12, "by_mode": { "WALK": { "distance_m": 795.12, "duration_min": 11.92 } }, "n_metro_15min_walk": 2, "n_metro_30min_walk": 6 }, "geometry": { "type": "Point", "coordinates": [ -8.641038395033828, 41.203416313721085 ] } },
{ "type": "Feature", "properties": { "point_id": 6096, "best_station_walk": 5755, "t_walk_min": 29.1, "distance_m": 1903.58, "by_mode": { "WALK": { "distance_m": 1903.58, "duration_min": 29.1 } }, "n_metro_15min_walk": 0, "n_metro_30min_walk": 2 }, "geometry": { "type": "Point", "coordinates": [ -8.630713720201022, 41.203461388240946 ] } },
{ "type": "Feature", "properties": { "point_id": 6176, "best_station_walk": 5764, "t_walk_min": 9.62, "distance_m": 580.03, "by_mode": { "WALK": { "distance_m": 580.03, "duration_min": 9.62 } }, "n_metro_15min_walk": 1, "n_metro_30min_walk": 4 }, "geometry": { "type": "Point", "coordinates": [ -8.64625347993311, 41.210146391689626 ] } },
{ "type": "Feature", "properties": { "point_id": 6177, "best_station_walk": 5754, "t_walk_min": 19.55, "distance_m": 1456.52, "by_mode": { "WALK": { "distance_m": 1456.52, "duration_min": 19.55 } }, "n_metro_15min_walk": 0, "n_metro_30min_walk": 3 }, "geometry": { "type": "Point", "coordinates": [ -8.635927755408193, 41.210191939753514 ] } },
{ "type": "Feature", "properties": { "point_id": 6255, "best_station_walk": 5736, "t_walk_min": 16.3, "distance_m": 1010.21, "by_mode": { "WALK": { "distance_m": 1010.21, "duration_min": 16.3 } }, "n_metro_15min_walk": 0, "n_metro_30min_walk": 1 }, "geometry": { "type": "Point", "coordinates": [ -8.661796388713679, 41.216829271514314 ] } },
{ "type": "Feature", "properties": { "point_id": 6256, "best_station_walk": 5736, "t_walk_min": 20.68, "distance_m": 1318.68, "by_mode": { "WALK": { "distance_m": 1318.68, "duration_min": 20.68 } }, "n_metro_15min_walk": 0, "n_metro_30min_walk": 3 }, "geometry": { "type": "Point", "coordinates": [ -8.651469638451935, 41.216876219341735 ] } },
{ "type": "Feature", "properties": { "point_id": 6257, "best_station_walk": 5754, "t_walk_min": 1.67, "distance_m": 93.2, "by_mode": { "WALK": { "distance_m": 93.2, "duration_min": 1.67 } }, "n_metro_15min_walk": 1, "n_metro_30min_walk": 4 }, "geometry": { "type": "Point", "coordinates": [ -8.641142864003346, 41.216922241169009 ] } },
{ "type": "Feature", "properties": { "point_id": 6258, "best_station_walk": 5754, "t_walk_min": 20.02, "distance_m": 1357.77, "by_mode": { "WALK": { "distance_m": 1357.77, "duration_min": 20.02 } }, "n_metro_15min_walk": 0, "n_metro_30min_walk": 2 }, "geometry": { "type": "Point", "coordinates": [ -8.630816065849659, 41.216967336989988 ] } },
{ "type": "Feature", "properties": { "point_id": 6337, "best_station_walk": 5736, "t_walk_min": 19.2, "distance_m": 1296.13, "by_mode": { "WALK": { "distance_m": 1296.13, "duration_min": 19.2 } }, "n_metro_15min_walk": 0, "n_metro_30min_walk": 4 }, "geometry": { "type": "Point", "coordinates": [ -8.656686871071964, 41.223605796510547 ] } },
{ "type": "Feature", "properties": { "point_id": 6338, "best_station_walk": 5757, "t_walk_min": 11.92, "distance_m": 714.86, "by_mode": { "WALK": { "distance_m": 714.86, "duration_min": 11.92 } }, "n_metro_15min_walk": 1, "n_metro_30min_walk": 3 }, "geometry": { "type": "Point", "coordinates": [ -8.646359046468145, 41.223652292320608 ] } },
{ "type": "Feature", "properties": { "point_id": 6339, "best_station_walk": 5757, "t_walk_min": 10.57, "distance_m": 624.15, "by_mode": { "WALK": { "distance_m": 624.15, "duration_min": 10.57 } }, "n_metro_15min_walk": 1, "n_metro_30min_walk": 2 }, "geometry": { "type": "Point", "coordinates": [ -8.636031197909032, 41.22369786190869 ] } },
{ "type": "Feature", "properties": { "point_id": 6340, "best_station_walk": 5763, "t_walk_min": 23.45, "distance_m": 1464.85, "by_mode": { "WALK": { "distance_m": 1464.85, "duration_min": 23.45 } }, "n_metro_15min_walk": 0, "n_metro_30min_walk": 2 }, "geometry": { "type": "Point", "coordinates": [ -8.625703325876563, 41.223742505268689 ] } },
{ "type": "Feature", "properties": { "point_id": 6341, "best_station_walk": 5763, "t_walk_min": 22.65, "distance_m": 1482.38, "by_mode": { "WALK": { "distance_m": 1482.38, "duration_min": 22.65 } }, "n_metro_15min_walk": 0, "n_metro_30min_walk": 2 }, "geometry": { "type": "Point", "coordinates": [ -8.615375430852692, 41.223786222394629 ] } },
{ "type": "Feature", "properties": { "point_id": 6418, "best_station_walk": 5782, "t_walk_min": 15.63, "distance_m": 1033.04, "by_mode": { "WALK": { "distance_m": 1033.04, "duration_min": 15.63 } }, "n_metro_15min_walk": 0, "n_metro_30min_walk": 3 }, "geometry": { "type": "Point", "coordinates": [ -8.672234028577817, 41.230287226585482 ] } },
{ "type": "Feature", "properties": { "point_id": 6419, "best_station_walk": 5783, "t_walk_min": 14.5, "distance_m": 961.64, "by_mode": { "WALK": { "distance_m": 961.64, "duration_min": 14.5 } }, "n_metro_15min_walk": 2, "n_metro_30min_walk": 4 }, "geometry": { "type": "Point", "coordinates": [ -8.661905178275033, 41.230335123029164 ] } },
{ "type": "Feature", "properties": { "point_id": 6420, "best_station_walk": 5733, "t_walk_min": 15.07, "distance_m": 962.59, "by_mode": { "WALK": { "distance_m": 962.59, "duration_min": 15.07 } }, "n_metro_15min_walk": 0, "n_metro_30min_walk": 1 }, "geometry": { "type": "Point", "coordinates": [ -8.65157630328444, 41.23038209304147 ] } },
{ "type": "Feature", "properties": { "point_id": 6422, "best_station_walk": 5763, "t_walk_min": 15.62, "distance_m": 814.49, "by_mode": { "WALK": { "distance_m": 814.49, "duration_min": 15.62 } }, "n_metro_15min_walk": 0, "n_metro_30min_walk": 3 }, "geometry": { "type": "Point", "coordinates": [ -8.630918481168315, 41.230473253746858 ] } },
{ "type": "Feature", "properties": { "point_id": 6423, "best_station_walk": 5760, "t_walk_min": 10.98, "distance_m": 660.86, "by_mode": { "WALK": { "distance_m": 660.86, "duration_min": 10.98 } }, "n_metro_15min_walk": 2, "n_metro_30min_walk": 3 }, "geometry": { "type": "Point", "coordinates": [ -8.620589535007046, 41.230517444427747 ] } },
{ "type": "Feature", "properties": { "point_id": 6501, "best_station_walk": 5782, "t_walk_min": 27.88, "distance_m": 1876.37, "by_mode": { "WALK": { "distance_m": 1876.37, "duration_min": 27.88 } }, "n_metro_15min_walk": 0, "n_metro_30min_walk": 2 }, "geometry": { "type": "Point", "coordinates": [ -8.6774544612135, 41.237015827649579 ] } },
{ "type": "Feature", "properties": { "point_id": 6502, "best_station_walk": 5783, "t_walk_min": 5.93, "distance_m": 393.69, "by_mode": { "WALK": { "distance_m": 393.69, "duration_min": 5.93 } }, "n_metro_15min_walk": 2, "n_metro_30min_walk": 5 }, "geometry": { "type": "Point", "coordinates": [ -8.667124560543169, 41.237064198730643 ] } },
{ "type": "Feature", "properties": { "point_id": 6503, "best_station_walk": 5750, "t_walk_min": 1.37, "distance_m": 62.34, "by_mode": { "WALK": { "distance_m": 62.34, "duration_min": 1.37 } }, "n_metro_15min_walk": 2, "n_metro_30min_walk": 5 }, "geometry": { "type": "Point", "coordinates": [ -8.656794634934259, 41.237111643164688 ] } },
{ "type": "Feature", "properties": { "point_id": 6504, "best_station_walk": 5733, "t_walk_min": 19.93, "distance_m": 1299.25, "by_mode": { "WALK": { "distance_m": 1299.25, "duration_min": 19.93 } }, "n_metro_15min_walk": 0, "n_metro_30min_walk": 2 }, "geometry": { "type": "Point", "coordinates": [ -8.646464684869079, 41.23715816094532 ] } },
{ "type": "Feature", "properties": { "point_id": 6505, "best_station_walk": 5765, "t_walk_min": 23.18, "distance_m": 1321.99, "by_mode": { "WALK": { "distance_m": 1321.99, "duration_min": 23.18 } }, "n_metro_15min_walk": 0, "n_metro_30min_walk": 2 }, "geometry": { "type": "Point", "coordinates": [ -8.636134710829939, 41.237203752066343 ] } },
{ "type": "Feature", "properties": { "point_id": 6506, "best_station_walk": 5760, "t_walk_min": 6.23, "distance_m": 374.98, "by_mode": { "WALK": { "distance_m": 374.98, "duration_min": 6.23 } }, "n_metro_15min_walk": 2, "n_metro_30min_walk": 3 }, "geometry": { "type": "Point", "coordinates": [ -8.625804713299154, 41.237248416521638 ] } },
{ "type": "Feature", "properties": { "point_id": 6507, "best_station_walk": 5760, "t_walk_min": 19.48, "distance_m": 1141.22, "by_mode": { "WALK": { "distance_m": 1141.22, "duration_min": 19.48 } }, "n_metro_15min_walk": 0, "n_metro_30min_walk": 3 }, "geometry": { "type": "Point", "coordinates": [ -8.615474692759056, 41.237292154305251 ] } },
{ "type": "Feature", "properties": { "point_id": 6585, "best_station_walk": 5783, "t_walk_min": 16.87, "distance_m": 1133.02, "by_mode": { "WALK": { "distance_m": 1133.02, "duration_min": 16.87 } }, "n_metro_15min_walk": 0, "n_metro_30min_walk": 6 }, "geometry": { "type": "Point", "coordinates": [ -8.67234501835858, 41.243793023447935 ] } },
{ "type": "Feature", "properties": { "point_id": 6586, "best_station_walk": 5744, "t_walk_min": 10.97, "distance_m": 747.69, "by_mode": { "WALK": { "distance_m": 747.69, "duration_min": 10.97 } }, "n_metro_15min_walk": 1, "n_metro_30min_walk": 6 }, "geometry": { "type": "Point", "coordinates": [ -8.662014041899823, 41.243840942523263 ] } },
{ "type": "Feature", "properties": { "point_id": 6587, "best_station_walk": 5744, "t_walk_min": 18.35, "distance_m": 1195.86, "by_mode": { "WALK": { "distance_m": 1195.86, "duration_min": 18.35 } }, "n_metro_15min_walk": 0, "n_metro_30min_walk": 2 }, "geometry": { "type": "Point", "coordinates": [ -8.651683040734017, 41.243887934729464 ] } },
{ "type": "Feature", "properties": { "point_id": 6588, "best_station_walk": 5765, "t_walk_min": 27.08, "distance_m": 1688.58, "by_mode": { "WALK": { "distance_m": 1688.58, "duration_min": 27.08 } }, "n_metro_15min_walk": 0, "n_metro_30min_walk": 2 }, "geometry": { "type": "Point", "coordinates": [ -8.641352015343662, 41.243934000060264 ] } },
{ "type": "Feature", "properties": { "point_id": 6589, "best_station_walk": 5765, "t_walk_min": 9.77, "distance_m": 607.34, "by_mode": { "WALK": { "distance_m": 607.34, "duration_min": 9.77 } }, "n_metro_15min_walk": 1, "n_metro_30min_walk": 3 }, "geometry": { "type": "Point", "coordinates": [ -8.631020966211258, 41.243979138509502 ] } },
{ "type": "Feature", "properties": { "point_id": 6590, "best_station_walk": 5760, "t_walk_min": 19.43, "distance_m": 1273.38, "by_mode": { "WALK": { "distance_m": 1273.38, "duration_min": 19.43 } }, "n_metro_15min_walk": 0, "n_metro_30min_walk": 3 }, "geometry": { "type": "Point", "coordinates": [ -8.620689893819316, 41.244023350071117 ] } },
{ "type": "Feature", "properties": { "point_id": 6668, "best_station_walk": 5739, "t_walk_min": 22.58, "distance_m": 1512.21, "by_mode": { "WALK": { "distance_m": 1512.21, "duration_min": 22.58 } }, "n_metro_15min_walk": 0, "n_metro_30min_walk": 3 }, "geometry": { "type": "Point", "coordinates": [ -8.677566552203661, 41.250521597013936 ] } },
{ "type": "Feature", "properties": { "point_id": 6669, "best_station_walk": 5739, "t_walk_min": 8.75, "distance_m": 596.28, "by_mode": { "WALK": { "distance_m": 596.28, "duration_min": 8.75 } }, "n_metro_15min_walk": 2, "n_metro_30min_walk": 4 }, "geometry": { "type": "Point", "coordinates": [ -8.667234524663527, 41.250569990950154 ] } },
{ "type": "Feature", "properties": { "point_id": 6670, "best_station_walk": 5744, "t_walk_min": 12.48, "distance_m": 829.87, "by_mode": { "WALK": { "distance_m": 829.87, "duration_min": 12.48 } }, "n_metro_15min_walk": 1, "n_metro_30min_walk": 4 }, "geometry": { "type": "Point", "coordinates": [ -8.656902472165379, 41.250617457801518 ] } },
{ "type": "Feature", "properties": { "point_id": 6671, "best_station_walk": 5744, "t_walk_min": 28.2, "distance_m": 1922.77, "by_mode": { "WALK": { "distance_m": 1922.77, "duration_min": 28.2 } }, "n_metro_15min_walk": 0, "n_metro_30min_walk": 1 }, "geometry": { "type": "Point", "coordinates": [ -8.646570395191901, 41.250663997561666 ] } },
{ "type": "Feature", "properties": { "point_id": 6672, "best_station_walk": 5762, "t_walk_min": 18.37, "distance_m": 1114.89, "by_mode": { "WALK": { "distance_m": 1114.89, "duration_min": 18.37 } }, "n_metro_15min_walk": 0, "n_metro_30min_walk": 2 }, "geometry": { "type": "Point", "coordinates": [ -8.636238294225777, 41.250709610224405 ] } },
{ "type": "Feature", "properties": { "point_id": 6673, "best_station_walk": 5762, "t_walk_min": 8.18, "distance_m": 453.61, "by_mode": { "WALK": { "distance_m": 453.61, "duration_min": 8.18 } }, "n_metro_15min_walk": 1, "n_metro_30min_walk": 3 }, "geometry": { "type": "Point", "coordinates": [ -8.625906169749701, 41.250754295783601 ] } },
{ "type": "Feature", "properties": { "point_id": 6674, "best_station_walk": 5762, "t_walk_min": 22.8, "distance_m": 1417.11, "by_mode": { "WALK": { "distance_m": 1417.11, "duration_min": 22.8 } }, "n_metro_15min_walk": 0, "n_metro_30min_walk": 3 }, "geometry": { "type": "Point", "coordinates": [ -8.615574022246378, 41.250798054233265 ] } },
{ "type": "Feature", "properties": { "point_id": 6750, "best_station_walk": 5739, "t_walk_min": 23.4, "distance_m": 1534.2, "by_mode": { "WALK": { "distance_m": 1534.2, "duration_min": 23.4 } }, "n_metro_15min_walk": 0, "n_metro_30min_walk": 2 }, "geometry": { "type": "Point", "coordinates": [ -8.682789162560985, 41.257249919261554 ] } },
{ "type": "Feature", "properties": { "point_id": 6751, "best_station_walk": 5739, "t_walk_min": 25.6, "distance_m": 1736.83, "by_mode": { "WALK": { "distance_m": 1736.83, "duration_min": 25.6 } }, "n_metro_15min_walk": 0, "n_metro_30min_walk": 1 }, "geometry": { "type": "Point", "coordinates": [ -8.672456083707957, 41.257298788278298 ] } },
{ "type": "Feature", "properties": { "point_id": 6752, "best_station_walk": 5739, "t_walk_min": 9.8, "distance_m": 700.75, "by_mode": { "WALK": { "distance_m": 700.75, "duration_min": 9.8 } }, "n_metro_15min_walk": 1, "n_metro_30min_walk": 2 }, "geometry": { "type": "Point", "coordinates": [ -8.662122979645758, 41.25734672999446 ] } },
{ "type": "Feature", "properties": { "point_id": 6753, "best_station_walk": 5744, "t_walk_min": 26.73, "distance_m": 1834.39, "by_mode": { "WALK": { "distance_m": 1834.39, "duration_min": 26.73 } }, "n_metro_15min_walk": 0, "n_metro_30min_walk": 1 }, "geometry": { "type": "Point", "coordinates": [ -8.651789850857256, 41.257393744403615 ] } },
{ "type": "Feature", "properties": { "point_id": 6754, "best_station_walk": 5762, "t_walk_min": 28.5, "distance_m": 1864.07, "by_mode": { "WALK": { "distance_m": 1864.07, "duration_min": 28.5 } }, "n_metro_15min_walk": 0, "n_metro_30min_walk": 1 }, "geometry": { "type": "Point", "coordinates": [ -8.641456697825316, 41.257439831499461 ] } },
{ "type": "Feature", "properties": { "point_id": 6755, "best_station_walk": 5762, "t_walk_min": 12.23, "distance_m": 755.54, "by_mode": { "WALK": { "distance_m": 755.54, "duration_min": 12.23 } }, "n_metro_15min_walk": 1, "n_metro_30min_walk": 3 }, "geometry": { "type": "Point", "coordinates": [ -8.631123521032821, 41.257484991275831 ] } },
{ "type": "Feature", "properties": { "point_id": 6756, "best_station_walk": 5756, "t_walk_min": 10.63, "distance_m": 738.77, "by_mode": { "WALK": { "distance_m": 738.77, "duration_min": 10.63 } }, "n_metro_15min_walk": 2, "n_metro_30min_walk": 3 }, "geometry": { "type": "Point", "coordinates": [ -8.620790320962659, 41.257529223726671 ] } },
{ "type": "Feature", "properties": { "point_id": 6757, "best_station_walk": 5756, "t_walk_min": 15.12, "distance_m": 985.82, "by_mode": { "WALK": { "distance_m": 985.82, "duration_min": 15.12 } }, "n_metro_15min_walk": 0, "n_metro_30min_walk": 3 }, "geometry": { "type": "Point", "coordinates": [ -8.610457098097719, 41.257572528846069 ] } },
{ "type": "Feature", "properties": { "point_id": 6832, "best_station_walk": 5753, "t_walk_min": 16.17, "distance_m": 1061.72, "by_mode": { "WALK": { "distance_m": 1061.72, "duration_min": 16.17 } }, "n_metro_15min_walk": 0, "n_metro_30min_walk": 1 }, "geometry": { "type": "Point", "coordinates": [ -8.677678719515884, 41.264027334340518 ] } },
{ "type": "Feature", "properties": { "point_id": 6833, "best_station_walk": 5753, "t_walk_min": 20.33, "distance_m": 1390.05, "by_mode": { "WALK": { "distance_m": 1390.05, "duration_min": 20.33 } }, "n_metro_15min_walk": 0, "n_metro_30min_walk": 2 }, "geometry": { "type": "Point", "coordinates": [ -8.667344563657931, 41.264075751141171 ] } },
{ "type": "Feature", "properties": { "point_id": 6834, "best_station_walk": 5739, "t_walk_min": 29.83, "distance_m": 1985.53, "by_mode": { "WALK": { "distance_m": 1985.53, "duration_min": 29.83 } }, "n_metro_15min_walk": 0, "n_metro_30min_walk": 1 }, "geometry": { "type": "Point", "coordinates": [ -8.657010382822506, 41.264123240418989 ] } },
{ "type": "Feature", "properties": { "point_id": 6836, "best_station_walk": 5756, "t_walk_min": 27.9, "distance_m": 1911.25, "by_mode": { "WALK": { "distance_m": 1911.25, "duration_min": 27.9 } }, "n_metro_15min_walk": 0, "n_metro_30min_walk": 2 }, "geometry": { "type": "Point", "coordinates": [ -8.636341948151475, 41.264215436380844 ] } },
{ "type": "Feature", "properties": { "point_id": 6837, "best_station_walk": 5756, "t_walk_min": 17.43, "distance_m": 1200.33, "by_mode": { "WALK": { "distance_m": 1200.33, "duration_min": 17.43 } }, "n_metro_15min_walk": 0, "n_metro_30min_walk": 2 }, "geometry": { "type": "Point", "coordinates": [ -8.626007695282004, 41.264260143052503 ] } },
{ "type": "Feature", "properties": { "point_id": 6838, "best_station_walk": 5756, "t_walk_min": 6.53, "distance_m": 352.28, "by_mode": { "WALK": { "distance_m": 352.28, "duration_min": 6.53 } }, "n_metro_15min_walk": 2, "n_metro_30min_walk": 3 }, "geometry": { "type": "Point", "coordinates": [ -8.615673419367329, 41.264303922176644 ] } },
{ "type": "Feature", "properties": { "point_id": 6839, "best_station_walk": 5761, "t_walk_min": 20.8, "distance_m": 1326.95, "by_mode": { "WALK": { "distance_m": 1326.95, "duration_min": 20.8 } }, "n_metro_15min_walk": 0, "n_metro_30min_walk": 2 }, "geometry": { "type": "Point", "coordinates": [ -8.605339120890536, 41.264346773747413 ] } },
{ "type": "Feature", "properties": { "point_id": 6913, "best_station_walk": 5753, "t_walk_min": 19.43, "distance_m": 1273.32, "by_mode": { "WALK": { "distance_m": 1273.32, "duration_min": 19.43 } }, "n_metro_15min_walk": 0, "n_metro_30min_walk": 1 }, "geometry": { "type": "Point", "coordinates": [ -8.693237614743598, 41.270705809132622 ] } },
{ "type": "Feature", "properties": { "point_id": 6914, "best_station_walk": 5753, "t_walk_min": 5.35, "distance_m": 348.02, "by_mode": { "WALK": { "distance_m": 348.02, "duration_min": 5.35 } }, "n_metro_15min_walk": 1, "n_metro_30min_walk": 1 }, "geometry": { "type": "Point", "coordinates": [ -8.682902432570257, 41.27075562896961 ] } },
{ "type": "Feature", "properties": { "point_id": 6915, "best_station_walk": 5753, "t_walk_min": 15.92, "distance_m": 1135.4, "by_mode": { "WALK": { "distance_m": 1135.4, "duration_min": 15.92 } }, "n_metro_15min_walk": 0, "n_metro_30min_walk": 1 }, "geometry": { "type": "Point", "coordinates": [ -8.672567224684853, 41.270804521074488 ] } },
{ "type": "Feature", "properties": { "point_id": 6916, "best_station_walk": 5753, "t_walk_min": 26.03, "distance_m": 1860.16, "by_mode": { "WALK": { "distance_m": 1860.16, "duration_min": 26.03 } }, "n_metro_15min_walk": 0, "n_metro_30min_walk": 1 }, "geometry": { "type": "Point", "coordinates": [ -8.662231991570621, 41.27085248544072 ] } },
{ "type": "Feature", "properties": { "point_id": 6919, "best_station_walk": 5761, "t_walk_min": 26.18, "distance_m": 1678.92, "by_mode": { "WALK": { "distance_m": 1678.92, "duration_min": 26.18 } }, "n_metro_15min_walk": 0, "n_metro_30min_walk": 2 }, "geometry": { "type": "Point", "coordinates": [ -8.6312261456874, 41.270990812043813 ] } },
{ "type": "Feature", "properties": { "point_id": 6920, "best_station_walk": 5761, "t_walk_min": 11.07, "distance_m": 803.35, "by_mode": { "WALK": { "distance_m": 803.35, "duration_min": 11.07 } }, "n_metro_15min_walk": 1, "n_metro_30min_walk": 2 }, "geometry": { "type": "Point", "coordinates": [ -8.620890816490336, 41.271035065392397 ] } },
{ "type": "Feature", "properties": { "point_id": 6921, "best_station_walk": 5761, "t_walk_min": 14.27, "distance_m": 920.05, "by_mode": { "WALK": { "distance_m": 920.05, "duration_min": 14.27 } }, "n_metro_15min_walk": 1, "n_metro_30min_walk": 2 }, "geometry": { "type": "Point", "coordinates": [ -8.61055546448072, 41.271078390971432 ] } },
{ "type": "Feature", "properties": { "point_id": 6922, "best_station_walk": 5761, "t_walk_min": 24.85, "distance_m": 1664.37, "by_mode": { "WALK": { "distance_m": 1664.37, "duration_min": 24.85 } }, "n_metro_15min_walk": 0, "n_metro_30min_walk": 2 }, "geometry": { "type": "Point", "coordinates": [ -8.600220090141828, 41.271120788775129 ] } },
{ "type": "Feature", "properties": { "point_id": 6993, "best_station_walk": 5743, "t_walk_min": 27.0, "distance_m": 1752.03, "by_mode": { "WALK": { "distance_m": 1752.03, "duration_min": 27.0 } }, "n_metro_15min_walk": 0, "n_metro_30min_walk": 1 }, "geometry": { "type": "Point", "coordinates": [ -8.708799665268504, 41.277382152903549 ] } },
{ "type": "Feature", "properties": { "point_id": 6994, "best_station_walk": 5743, "t_walk_min": 18.38, "distance_m": 1124.68, "by_mode": { "WALK": { "distance_m": 1124.68, "duration_min": 18.38 } }, "n_metro_15min_walk": 0, "n_metro_30min_walk": 1 }, "geometry": { "type": "Point", "coordinates": [ -8.698463457534965, 41.277433376421492 ] } },
{ "type": "Feature", "properties": { "point_id": 6995, "best_station_walk": 5753, "t_walk_min": 21.13, "distance_m": 1406.53, "by_mode": { "WALK": { "distance_m": 1406.53, "duration_min": 21.13 } }, "n_metro_15min_walk": 0, "n_metro_30min_walk": 1 }, "geometry": { "type": "Point", "coordinates": [ -8.688127223354218, 41.277483671998276 ] } },
{ "type": "Feature", "properties": { "point_id": 6996, "best_station_walk": 5753, "t_walk_min": 15.98, "distance_m": 1081.01, "by_mode": { "WALK": { "distance_m": 1081.01, "duration_min": 15.98 } }, "n_metro_15min_walk": 0, "n_metro_30min_walk": 1 }, "geometry": { "type": "Point", "coordinates": [ -8.677790963209677, 41.277533039627187 ] } },
{ "type": "Feature", "properties": { "point_id": 6997, "best_station_walk": 5753, "t_walk_min": 25.88, "distance_m": 1714.24, "by_mode": { "WALK": { "distance_m": 1714.24, "duration_min": 25.88 } }, "n_metro_15min_walk": 0, "n_metro_30min_walk": 1 }, "geometry": { "type": "Point", "coordinates": [ -8.667454677584756, 41.277581479301595 ] } },
{ "type": "Feature", "properties": { "point_id": 7001, "best_station_walk": 5761, "t_walk_min": 25.43, "distance_m": 1771.02, "by_mode": { "WALK": { "distance_m": 1771.02, "duration_min": 25.43 } }, "n_metro_15min_walk": 0, "n_metro_30min_walk": 1 }, "geometry": { "type": "Point", "coordinates": [ -8.626109289949921, 41.277765958326299 ] } },
{ "type": "Feature", "properties": { "point_id": 7002, "best_station_walk": 5761, "t_walk_min": 20.73, "distance_m": 1395.2, "by_mode": { "WALK": { "distance_m": 1395.2, "duration_min": 20.73 } }, "n_metro_15min_walk": 0, "n_metro_30min_walk": 2 }, "geometry": { "type": "Point", "coordinates": [ -8.615772884174643, 41.277809758133351 ] } },
{ "type": "Feature", "properties": { "point_id": 7074, "best_station_walk": 5743, "t_walk_min": 20.77, "distance_m": 1332.95, "by_mode": { "WALK": { "distance_m": 1332.95, "duration_min": 20.77 } }, "n_metro_15min_walk": 0, "n_metro_30min_walk": 1 }, "geometry": { "type": "Point", "coordinates": [ -8.703690378770727, 41.284160691722768 ] } },
{ "type": "Feature", "properties": { "point_id": 7075, "best_station_walk": 5743, "t_walk_min": 4.05, "distance_m": 236.11, "by_mode": { "WALK": { "distance_m": 236.11, "duration_min": 4.05 } }, "n_metro_15min_walk": 1, "n_metro_30min_walk": 2 }, "geometry": { "type": "Point", "coordinates": [ -8.693353092351087, 41.284211463259219 ] } },
{ "type": "Feature", "properties": { "point_id": 7076, "best_station_walk": 5743, "t_walk_min": 21.13, "distance_m": 1365.69, "by_mode": { "WALK": { "distance_m": 1365.69, "duration_min": 21.13 } }, "n_metro_15min_walk": 0, "n_metro_30min_walk": 1 }, "geometry": { "type": "Point", "coordinates": [ -8.683015779715726, 41.28426130663199 ] } },
{ "type": "Feature", "properties": { "point_id": 7077, "best_station_walk": 5753, "t_walk_min": 29.48, "distance_m": 2022.34, "by_mode": { "WALK": { "distance_m": 2022.34, "duration_min": 29.48 } }, "n_metro_15min_walk": 0, "n_metro_30min_walk": 1 }, "geometry": { "type": "Point", "coordinates": [ -8.672678441348245, 41.284310221834417 ] } },
{ "type": "Feature", "properties": { "point_id": 7153, "best_station_walk": 5742, "t_walk_min": 20.1, "distance_m": 1248.64, "by_mode": { "WALK": { "distance_m": 1248.64, "duration_min": 20.1 } }, "n_metro_15min_walk": 0, "n_metro_30min_walk": 2 }, "geometry": { "type": "Point", "coordinates": [ -8.708918378934385, 41.290887754869026 ] } },
{ "type": "Feature", "properties": { "point_id": 7154, "best_station_walk": 5741, "t_walk_min": 4.32, "distance_m": 276.91, "by_mode": { "WALK": { "distance_m": 276.91, "duration_min": 4.32 } }, "n_metro_15min_walk": 1, "n_metro_30min_walk": 3 }, "geometry": { "type": "Point", "coordinates": [ -8.698580040044371, 41.290939002585027 ] } },
{ "type": "Feature", "properties": { "point_id": 7155, "best_station_walk": 5743, "t_walk_min": 14.13, "distance_m": 907.97, "by_mode": { "WALK": { "distance_m": 907.97, "duration_min": 14.13 } }, "n_metro_15min_walk": 1, "n_metro_30min_walk": 2 }, "geometry": { "type": "Point", "coordinates": [ -8.688241674686518, 41.290989321921572 ] } },
{ "type": "Feature", "properties": { "point_id": 7156, "best_station_walk": 5743, "t_walk_min": 29.1, "distance_m": 2018.98, "by_mode": { "WALK": { "distance_m": 2018.98, "duration_min": 29.1 } }, "n_metro_15min_walk": 0, "n_metro_30min_walk": 1 }, "geometry": { "type": "Point", "coordinates": [ -8.677903283344611, 41.291038712871874 ] } },
{ "type": "Feature", "properties": { "point_id": 7233, "best_station_walk": 5742, "t_walk_min": 21.48, "distance_m": 1363.0, "by_mode": { "WALK": { "distance_m": 1363.0, "duration_min": 21.48 } }, "n_metro_15min_walk": 0, "n_metro_30min_walk": 1 }, "geometry": { "type": "Point", "coordinates": [ -8.71414745850962, 41.29761456569274 ] } },
{ "type": "Feature", "properties": { "point_id": 7234, "best_station_walk": 5742, "t_walk_min": 4.77, "distance_m": 281.76, "by_mode": { "WALK": { "distance_m": 281.76, "duration_min": 4.77 } }, "n_metro_15min_walk": 1, "n_metro_30min_walk": 2 }, "geometry": { "type": "Point", "coordinates": [ -8.703808066917762, 41.297666289808255 ] } },
{ "type": "Feature", "properties": { "point_id": 7235, "best_station_walk": 5741, "t_walk_min": 15.72, "distance_m": 1063.19, "by_mode": { "WALK": { "distance_m": 1063.19, "duration_min": 15.72 } }, "n_metro_15min_walk": 0, "n_metro_30min_walk": 2 }, "geometry": { "type": "Point", "coordinates": [ -8.69346864860575, 41.297717085328486 ] } },
{ "type": "Feature", "properties": { "point_id": 7236, "best_station_walk": 5741, "t_walk_min": 25.02, "distance_m": 1712.48, "by_mode": { "WALK": { "distance_m": 1712.48, "duration_min": 25.02 } }, "n_metro_15min_walk": 0, "n_metro_30min_walk": 1 }, "geometry": { "type": "Point", "coordinates": [ -8.683129204057559, 41.297766952246633 ] } },
{ "type": "Feature", "properties": { "point_id": 7314, "best_station_walk": 5740, "t_walk_min": 21.78, "distance_m": 1507.68, "by_mode": { "WALK": { "distance_m": 1507.68, "duration_min": 21.78 } }, "n_metro_15min_walk": 0, "n_metro_30min_walk": 2 }, "geometry": { "type": "Point", "coordinates": [ -8.719377617980305, 41.304341124026323 ] } },
{ "type": "Feature", "properties": { "point_id": 7315, "best_station_walk": 5742, "t_walk_min": 13.15, "distance_m": 815.23, "by_mode": { "WALK": { "distance_m": 815.23, "duration_min": 13.15 } }, "n_metro_15min_walk": 1, "n_metro_30min_walk": 2 }, "geometry": { "type": "Point", "coordinates": [ -8.709037173455133, 41.304393324761364 ] } },
{ "type": "Feature", "properties": { "point_id": 7316, "best_station_walk": 5742, "t_walk_min": 16.83, "distance_m": 1124.39, "by_mode": { "WALK": { "distance_m": 1124.39, "duration_min": 16.83 } }, "n_metro_15min_walk": 0, "n_metro_30min_walk": 1 }, "geometry": { "type": "Point", "coordinates": [ -8.698696701957308, 41.304444596685308 ] } },
{ "type": "Feature", "properties": { "point_id": 7394, "best_station_walk": 5740, "t_walk_min": 28.72, "distance_m": 1930.2, "by_mode": { "WALK": { "distance_m": 1930.2, "duration_min": 28.72 } }, "n_metro_15min_walk": 0, "n_metro_30min_walk": 1 }, "geometry": { "type": "Point", "coordinates": [ -8.73495032781074, 41.311013823107722 ] } },
{ "type": "Feature", "properties": { "point_id": 7395, "best_station_walk": 5740, "t_walk_min": 16.15, "distance_m": 1076.95, "by_mode": { "WALK": { "distance_m": 1076.95, "duration_min": 16.15 } }, "n_metro_15min_walk": 0, "n_metro_30min_walk": 2 }, "geometry": { "type": "Point", "coordinates": [ -8.724608857830489, 41.311067429702206 ] } },
{ "type": "Feature", "properties": { "point_id": 7396, "best_station_walk": 5740, "t_walk_min": 9.7, "distance_m": 628.96, "by_mode": { "WALK": { "distance_m": 628.96, "duration_min": 9.7 } }, "n_metro_15min_walk": 1, "n_metro_30min_walk": 2 }, "geometry": { "type": "Point", "coordinates": [ -8.71426736014055, 41.311120107276807 ] } },
{ "type": "Feature", "properties": { "point_id": 7397, "best_station_walk": 5740, "t_walk_min": 22.98, "distance_m": 1589.0, "by_mode": { "WALK": { "distance_m": 1589.0, "duration_min": 22.98 } }, "n_metro_15min_walk": 0, "n_metro_30min_walk": 2 }, "geometry": { "type": "Point", "coordinates": [ -8.70392583522526, 41.311171855824504 ] } },
{ "type": "Feature", "properties": { "point_id": 7398, "best_station_walk": 5742, "t_walk_min": 27.98, "distance_m": 1877.01, "by_mode": { "WALK": { "distance_m": 1877.01, "duration_min": 27.98 } }, "n_metro_15min_walk": 0, "n_metro_30min_walk": 1 }, "geometry": { "type": "Point", "coordinates": [ -8.69358428356896, 41.311222675338307 ] } },
{ "type": "Feature", "properties": { "point_id": 7475, "best_station_walk": 5740, "t_walk_min": 23.72, "distance_m": 1582.44, "by_mode": { "WALK": { "distance_m": 1582.44, "duration_min": 23.72 } }, "n_metro_15min_walk": 0, "n_metro_30min_walk": 2 }, "geometry": { "type": "Point", "coordinates": [ -8.72984117854441, 41.317793482552673 ] } },
{ "type": "Feature", "properties": { "point_id": 7476, "best_station_walk": 5735, "t_walk_min": 10.93, "distance_m": 730.35, "by_mode": { "WALK": { "distance_m": 730.35, "duration_min": 10.93 } }, "n_metro_15min_walk": 2, "n_metro_30min_walk": 2 }, "geometry": { "type": "Point", "coordinates": [ -8.719498627458256, 41.317846637186975 ] } },
{ "type": "Feature", "properties": { "point_id": 7477, "best_station_walk": 5740, "t_walk_min": 8.1, "distance_m": 574.79, "by_mode": { "WALK": { "distance_m": 574.79, "duration_min": 8.1 } }, "n_metro_15min_walk": 1, "n_metro_30min_walk": 2 }, "geometry": { "type": "Point", "coordinates": [ -8.70915604889386, 41.317898862578495 ] } },
{ "type": "Feature", "properties": { "point_id": 7478, "best_station_walk": 5740, "t_walk_min": 25.83, "distance_m": 1851.88, "by_mode": { "WALK": { "distance_m": 1851.88, "duration_min": 25.83 } }, "n_metro_15min_walk": 0, "n_metro_30min_walk": 1 }, "geometry": { "type": "Point", "coordinates": [ -8.698813443335748, 41.317950158720244 ] } },
{ "type": "Feature", "properties": { "point_id": 7554, "best_station_walk": 5735, "t_walk_min": 25.4, "distance_m": 1571.94, "by_mode": { "WALK": { "distance_m": 1571.94, "duration_min": 25.4 } }, "n_metro_15min_walk": 0, "n_metro_30min_walk": 3 }, "geometry": { "type": "Point", "coordinates": [ -8.724730975892681, 41.324572914324115 ] } },
{ "type": "Feature", "properties": { "point_id": 7555, "best_station_walk": 5735, "t_walk_min": 8.85, "distance_m": 603.85, "by_mode": { "WALK": { "distance_m": 603.85, "duration_min": 8.85 } }, "n_metro_15min_walk": 1, "n_metro_30min_walk": 3 }, "geometry": { "type": "Point", "coordinates": [ -8.714387343447546, 41.324625616779635 ] } },
{ "type": "Feature", "properties": { "point_id": 7556, "best_station_walk": 5740, "t_walk_min": 26.28, "distance_m": 1841.08, "by_mode": { "WALK": { "distance_m": 1841.08, "duration_min": 26.28 } }, "n_metro_15min_walk": 0, "n_metro_30min_walk": 1 }, "geometry": { "type": "Point", "coordinates": [ -8.704043683755797, 41.324677389769455 ] } },
{ "type": "Feature", "properties": { "point_id": 7557, "best_station_walk": 5740, "t_walk_min": 29.0, "distance_m": 2038.29, "by_mode": { "WALK": { "distance_m": 2038.29, "duration_min": 29.0 } }, "n_metro_15min_walk": 0, "n_metro_30min_walk": 1 }, "geometry": { "type": "Point", "coordinates": [ -8.693699997302156, 41.324728233286628 ] } },
{ "type": "Feature", "properties": { "point_id": 7630, "best_station_walk": 5749, "t_walk_min": 24.12, "distance_m": 1640.62, "by_mode": { "WALK": { "distance_m": 1640.62, "duration_min": 24.12 } }, "n_metro_15min_walk": 0, "n_metro_30min_walk": 1 }, "geometry": { "type": "Point", "coordinates": [ -8.737714327892222, 41.331447355289413 ] } },
{ "type": "Feature", "properties": { "point_id": 7631, "best_station_walk": 5749, "t_walk_min": 15.92, "distance_m": 1109.26, "by_mode": { "WALK": { "distance_m": 1109.26, "duration_min": 15.92 } }, "n_metro_15min_walk": 0, "n_metro_30min_walk": 3 }, "geometry": { "type": "Point", "coordinates": [ -8.729964405928442, 41.331298938520526 ] } },
{ "type": "Feature", "properties": { "point_id": 7632, "best_station_walk": 5749, "t_walk_min": 7.97, "distance_m": 563.07, "by_mode": { "WALK": { "distance_m": 563.07, "duration_min": 7.97 } }, "n_metro_15min_walk": 1, "n_metro_30min_walk": 3 }, "geometry": { "type": "Point", "coordinates": [ -8.719619719370941, 41.331352118260227 ] } },
{ "type": "Feature", "properties": { "point_id": 7633, "best_station_walk": 5749, "t_walk_min": 23.92, "distance_m": 1566.78, "by_mode": { "WALK": { "distance_m": 1566.78, "duration_min": 23.92 } }, "n_metro_15min_walk": 0, "n_metro_30min_walk": 2 }, "geometry": { "type": "Point", "coordinates": [ -8.709275005313737, 41.331404368318296 ] } },
{ "type": "Feature", "properties": { "point_id": 7705, "best_station_walk": 5732, "t_walk_min": 28.67, "distance_m": 1895.13, "by_mode": { "WALK": { "distance_m": 1895.13, "duration_min": 28.67 } }, "n_metro_15min_walk": 0, "n_metro_30min_walk": 1 }, "geometry": { "type": "Point", "coordinates": [ -8.744314921167319, 41.339805205400921 ] } },
{ "type": "Feature", "properties": { "point_id": 7706, "best_station_walk": 5732, "t_walk_min": 18.08, "distance_m": 1173.89, "by_mode": { "WALK": { "distance_m": 1173.89, "duration_min": 18.08 } }, "n_metro_15min_walk": 0, "n_metro_30min_walk": 3 }, "geometry": { "type": "Point", "coordinates": [ -8.735198918050342, 41.338024709608383 ] } },
{ "type": "Feature", "properties": { "point_id": 7707, "best_station_walk": 5731, "t_walk_min": 8.82, "distance_m": 554.58, "by_mode": { "WALK": { "distance_m": 554.58, "duration_min": 8.82 } }, "n_metro_15min_walk": 2, "n_metro_30min_walk": 3 }, "geometry": { "type": "Point", "coordinates": [ -8.724853177148855, 41.338078366852521 ] } },
{ "type": "Feature", "properties": { "point_id": 7708, "best_station_walk": 5749, "t_walk_min": 14.77, "distance_m": 988.06, "by_mode": { "WALK": { "distance_m": 988.06, "duration_min": 14.77 } }, "n_metro_15min_walk": 1, "n_metro_30min_walk": 3 }, "geometry": { "type": "Point", "coordinates": [ -8.714507408494384, 41.338131094199092 ] } },
{ "type": "Feature", "properties": { "point_id": 7778, "best_station_walk": 5732, "t_walk_min": 20.15, "distance_m": 1299.11, "by_mode": { "WALK": { "distance_m": 1299.11, "duration_min": 20.15 } }, "n_metro_15min_walk": 0, "n_metro_30min_walk": 4 }, "geometry": { "type": "Point", "coordinates": [ -8.740434512743363, 41.344750227419809 ] } },
{ "type": "Feature", "properties": { "point_id": 7779, "best_station_walk": 5732, "t_walk_min": 3.1, "distance_m": 218.32, "by_mode": { "WALK": { "distance_m": 218.32, "duration_min": 3.1 } }, "n_metro_15min_walk": 2, "n_metro_30min_walk": 4 }, "geometry": { "type": "Point", "coordinates": [ -8.730087717266287, 41.344804362388693 ] } },
{ "type": "Feature", "properties": { "point_id": 7780, "best_station_walk": 5732, "t_walk_min": 16.97, "distance_m": 1128.53, "by_mode": { "WALK": { "distance_m": 1128.53, "duration_min": 16.97 } }, "n_metro_15min_walk": 0, "n_metro_30min_walk": 2 }, "geometry": { "type": "Point", "coordinates": [ -8.719740893782744, 41.344857567244027 ] } },
{ "type": "Feature", "properties": { "point_id": 7781, "best_station_walk": 5731, "t_walk_min": 29.82, "distance_m": 2112.81, "by_mode": { "WALK": { "distance_m": 2112.81, "duration_min": 29.82 } }, "n_metro_15min_walk": 0, "n_metro_30min_walk": 1 }, "geometry": { "type": "Point", "coordinates": [ -8.709394042778014, 41.34490984197874 ] } },
{ "type": "Feature", "properties": { "point_id": 7846, "best_station_walk": 5752, "t_walk_min": 23.2, "distance_m": 1568.44, "by_mode": { "WALK": { "distance_m": 1568.44, "duration_min": 23.2 } }, "n_metro_15min_walk": 0, "n_metro_30min_walk": 2 }, "geometry": { "type": "Point", "coordinates": [ -8.753083266679491, 41.351591793823033 ] } },
{ "type": "Feature", "properties": { "point_id": 7847, "best_station_walk": 5752, "t_walk_min": 18.17, "distance_m": 1194.99, "by_mode": { "WALK": { "distance_m": 1194.99, "duration_min": 18.17 } }, "n_metro_15min_walk": 0, "n_metro_30min_walk": 3 }, "geometry": { "type": "Point", "coordinates": [ -8.745671190492676, 41.351475491786886 ] } },
{ "type": "Feature", "properties": { "point_id": 7848, "best_station_walk": 5747, "t_walk_min": 16.0, "distance_m": 993.64, "by_mode": { "WALK": { "distance_m": 993.64, "duration_min": 16.0 } }, "n_metro_15min_walk": 0, "n_metro_30min_walk": 3 }, "geometry": { "type": "Point", "coordinates": [ -8.735323340208408, 41.351530104700828 ] } },
{ "type": "Feature", "properties": { "point_id": 7849, "best_station_walk": 5732, "t_walk_min": 26.98, "distance_m": 1870.23, "by_mode": { "WALK": { "distance_m": 1870.23, "duration_min": 26.98 } }, "n_metro_15min_walk": 0, "n_metro_30min_walk": 2 }, "geometry": { "type": "Point", "coordinates": [ -8.724975461664002, 41.351583787285307 ] } },
{ "type": "Feature", "properties": { "point_id": 7850, "best_station_walk": 5732, "t_walk_min": 24.6, "distance_m": 1663.11, "by_mode": { "WALK": { "distance_m": 1663.11, "duration_min": 24.6 } }, "n_metro_15min_walk": 0, "n_metro_30min_walk": 1 }, "geometry": { "type": "Point", "coordinates": [ -8.71462755534492, 41.351636539533096 ] } },
{ "type": "Feature", "properties": { "point_id": 7902, "best_station_walk": 5730, "t_walk_min": 21.48, "distance_m": 1370.49, "by_mode": { "WALK": { "distance_m": 1370.49, "duration_min": 21.48 } }, "n_metro_15min_walk": 0, "n_metro_30min_walk": 4 }, "geometry": { "type": "Point", "coordinates": [ -8.757784974310335, 41.36002984088465 ] } },
{ "type": "Feature", "properties": { "point_id": 7903, "best_station_walk": 5730, "t_walk_min": 20.55, "distance_m": 1287.1, "by_mode": { "WALK": { "distance_m": 1287.1, "duration_min": 20.55 } }, "n_metro_15min_walk": 0, "n_metro_30min_walk": 4 }, "geometry": { "type": "Point", "coordinates": [ -8.750908951783639, 41.3582005025416 ] } },
{ "type": "Feature", "properties": { "point_id": 7904, "best_station_walk": 5752, "t_walk_min": 2.77, "distance_m": 180.98, "by_mode": { "WALK": { "distance_m": 180.98, "duration_min": 2.77 } }, "n_metro_15min_walk": 3, "n_metro_30min_walk": 4 }, "geometry": { "type": "Point", "coordinates": [ -8.740560046460587, 41.358255593621031 ] } },
{ "type": "Feature", "properties": { "point_id": 7905, "best_station_walk": 5747, "t_walk_min": 14.92, "distance_m": 1004.38, "by_mode": { "WALK": { "distance_m": 1004.38, "duration_min": 14.92 } }, "n_metro_15min_walk": 1, "n_metro_30min_walk": 3 }, "geometry": { "type": "Point", "coordinates": [ -8.730211112623531, 41.358309754155009 ] } },
{ "type": "Feature", "properties": { "point_id": 7906, "best_station_walk": 5747, "t_walk_min": 27.83, "distance_m": 1858.36, "by_mode": { "WALK": { "distance_m": 1858.36, "duration_min": 27.83 } }, "n_metro_15min_walk": 0, "n_metro_30min_walk": 1 }, "geometry": { "type": "Point", "coordinates": [ -8.71986215075812, 41.358362984136278 ] } },
{ "type": "Feature", "properties": { "point_id": 7956, "best_station_walk": 5748, "t_walk_min": 19.57, "distance_m": 1316.89, "by_mode": { "WALK": { "distance_m": 1316.89, "duration_min": 19.57 } }, "n_metro_15min_walk": 0, "n_metro_30min_walk": 4 }, "geometry": { "type": "Point", "coordinates": [ -8.761915710044359, 41.365819982240481 ] } },
{ "type": "Feature", "properties": { "point_id": 7957, "best_station_walk": 5745, "t_walk_min": 12.42, "distance_m": 800.19, "by_mode": { "WALK": { "distance_m": 800.19, "duration_min": 12.42 } }, "n_metro_15min_walk": 1, "n_metro_30min_walk": 5 }, "geometry": { "type": "Point", "coordinates": [ -8.756073968642642, 41.364929099938045 ] } },
{ "type": "Feature", "properties": { "point_id": 7958, "best_station_walk": 5730, "t_walk_min": 1.63, "distance_m": 101.79, "by_mode": { "WALK": { "distance_m": 101.79, "duration_min": 1.63 } }, "n_metro_15min_walk": 3, "n_metro_30min_walk": 6 }, "geometry": { "type": "Point", "coordinates": [ -8.745797836508373, 41.364980828981288 ] } },
{ "type": "Feature", "properties": { "point_id": 7959, "best_station_walk": 5752, "t_walk_min": 11.7, "distance_m": 804.4, "by_mode": { "WALK": { "distance_m": 804.4, "duration_min": 11.7 } }, "n_metro_15min_walk": 1, "n_metro_30min_walk": 4 }, "geometry": { "type": "Point", "coordinates": [ -8.73544784714689, 41.365035467685225 ] } },
{ "type": "Feature", "properties": { "point_id": 7960, "best_station_walk": 5752, "t_walk_min": 21.58, "distance_m": 1445.4, "by_mode": { "WALK": { "distance_m": 1445.4, "duration_min": 21.58 } }, "n_metro_15min_walk": 0, "n_metro_30min_walk": 3 }, "geometry": { "type": "Point", "coordinates": [ -8.725097829503179, 41.36508917562039 ] } },
{ "type": "Feature", "properties": { "point_id": 8006, "best_station_walk": 5748, "t_walk_min": 26.37, "distance_m": 1804.96, "by_mode": { "WALK": { "distance_m": 1804.96, "duration_min": 26.37 } }, "n_metro_15min_walk": 0, "n_metro_30min_walk": 1 }, "geometry": { "type": "Point", "coordinates": [ -8.768643792263976, 41.372348950280724 ] } },
{ "type": "Feature", "properties": { "point_id": 8007, "best_station_walk": 5748, "t_walk_min": 13.25, "distance_m": 874.47, "by_mode": { "WALK": { "distance_m": 874.47, "duration_min": 13.25 } }, "n_metro_15min_walk": 1, "n_metro_30min_walk": 3 }, "geometry": { "type": "Point", "coordinates": [ -8.761129489138769, 41.371728395159579 ] } },
{ "type": "Feature", "properties": { "point_id": 8008, "best_station_walk": 5748, "t_walk_min": 7.02, "distance_m": 490.58, "by_mode": { "WALK": { "distance_m": 490.58, "duration_min": 7.02 } }, "n_metro_15min_walk": 2, "n_metro_30min_walk": 4 }, "geometry": { "type": "Point", "coordinates": [ -8.751036710837505, 41.371705810613527 ] } },
{ "type": "Feature", "properties": { "point_id": 8009, "best_station_walk": 5730, "t_walk_min": 15.83, "distance_m": 1095.24, "by_mode": { "WALK": { "distance_m": 1095.24, "duration_min": 15.83 } }, "n_metro_15min_walk": 0, "n_metro_30min_walk": 4 }, "geometry": { "type": "Point", "coordinates": [ -8.740685665719822, 41.371760927707903 ] } },
{ "type": "Feature", "properties": { "point_id": 8010, "best_station_walk": 5730, "t_walk_min": 29.57, "distance_m": 1972.2, "by_mode": { "WALK": { "distance_m": 1972.2, "duration_min": 29.57 } }, "n_metro_15min_walk": 0, "n_metro_30min_walk": 1 }, "geometry": { "type": "Point", "coordinates": [ -8.730334592065846, 41.371815113817455 ] } },
{ "type": "Feature", "properties": { "point_id": 8049, "best_station_walk": 5746, "t_walk_min": 13.15, "distance_m": 849.08, "by_mode": { "WALK": { "distance_m": 849.08, "duration_min": 13.15 } }, "n_metro_15min_walk": 1, "n_metro_30min_walk": 2 }, "geometry": { "type": "Point", "coordinates": [ -8.765743955218445, 41.378526711248888 ] } },
{ "type": "Feature", "properties": { "point_id": 8050, "best_station_walk": 5746, "t_walk_min": 4.75, "distance_m": 326.34, "by_mode": { "WALK": { "distance_m": 326.34, "duration_min": 4.75 } }, "n_metro_15min_walk": 2, "n_metro_30min_walk": 3 }, "geometry": { "type": "Point", "coordinates": [ -8.7562766699339, 41.378430538349647 ] } },
{ "type": "Feature", "properties": { "point_id": 8051, "best_station_walk": 5748, "t_walk_min": 17.63, "distance_m": 1207.5, "by_mode": { "WALK": { "distance_m": 1207.5, "duration_min": 17.63 } }, "n_metro_15min_walk": 0, "n_metro_30min_walk": 4 }, "geometry": { "type": "Point", "coordinates": [ -8.74592456882826, 41.378486134055009 ] } },
{ "type": "Feature", "properties": { "point_id": 8052, "best_station_walk": 5745, "t_walk_min": 23.98, "distance_m": 1709.02, "by_mode": { "WALK": { "distance_m": 1709.02, "duration_min": 23.98 } }, "n_metro_15min_walk": 0, "n_metro_30min_walk": 3 }, "geometry": { "type": "Point", "coordinates": [ -8.735572438932065, 41.37854079855947 ] } },
{ "type": "Feature", "properties": { "point_id": 8082, "best_station_walk": 5746, "t_walk_min": 24.2, "distance_m": 1646.11, "by_mode": { "WALK": { "distance_m": 1646.11, "duration_min": 24.2 } }, "n_metro_15min_walk": 0, "n_metro_30min_walk": 1 }, "geometry": { "type": "Point", "coordinates": [ -8.77055420562596, 41.385709091238269 ] } },
{ "type": "Feature", "properties": { "point_id": 8083, "best_station_walk": 5746, "t_walk_min": 17.55, "distance_m": 1204.09, "by_mode": { "WALK": { "distance_m": 1204.09, "duration_min": 17.55 } }, "n_metro_15min_walk": 0, "n_metro_30min_walk": 2 }, "geometry": { "type": "Point", "coordinates": [ -8.761517714283666, 41.385155012021457 ] } },
{ "type": "Feature", "properties": { "point_id": 8084, "best_station_walk": 5746, "t_walk_min": 15.92, "distance_m": 1152.85, "by_mode": { "WALK": { "distance_m": 1152.85, "duration_min": 15.92 } }, "n_metro_15min_walk": 0, "n_metro_30min_walk": 2 }, "geometry": { "type": "Point", "coordinates": [ -8.751164556958317, 41.385211086558378 ] } },
{ "type": "Feature", "properties": { "point_id": 8110, "best_station_walk": 5746, "t_walk_min": 28.23, "distance_m": 1869.93, "by_mode": { "WALK": { "distance_m": 1869.93, "duration_min": 28.23 } }, "n_metro_15min_walk": 0, "n_metro_30min_walk": 1 }, "geometry": { "type": "Point", "coordinates": [ -8.766759844373098, 41.391879231460706 ] } },
{ "type": "Feature", "properties": { "point_id": 8111, "best_station_walk": 5746, "t_walk_min": 29.58, "distance_m": 2089.29, "by_mode": { "WALK": { "distance_m": 2089.29, "duration_min": 29.58 } }, "n_metro_15min_walk": 0, "n_metro_30min_walk": 1 }, "geometry": { "type": "Point", "coordinates": [ -8.756405630596293, 41.39193578504986 ] } },
{ "type": "Feature", "properties": { "point_id": 8112, "best_station_walk": 5746, "t_walk_min": 26.68, "distance_m": 1964.42, "by_mode": { "WALK": { "distance_m": 1964.42, "duration_min": 26.68 } }, "n_metro_15min_walk": 0, "n_metro_30min_walk": 1 }, "geometry": { "type": "Point", "coordinates": [ -8.746051387519826, 41.391991407005953 ] } }
]
}
